BOARD,NAME,ADDRESS_AB,POSTAL_COD,CITY,PROVINCE,PHONE_NO,FAX_NO,EMAIL,GRADES,POSTSECOND,DATA_SOURCE,ELEM,JUNIOR_H,SENIOR_H,GLOBAL_ID,POINT,Ward Boundaries 2 2,City Quadrants 2 2,Calgary Communities 2 2,Ward Boundaries 2013-2017 2 2,CALGIS CENSUS COMMUNITY DIST 2015 Shape File 2 2
Gobind Marg Charitable Trust Foundation,Gobind Sarvar School Guru Nanak Gate Campus,8730 - 45 Street NE,T3J2J1,Calgary,AB,(403) 805-1822,,gss@gscalgary.com,Elementary/Junior High/Senior High,N,N,Y,Y,Y,{B1CB5824-BFC4-4DBA-9BED-1D0E7BB9F411},POINT (-113.9663021 51.1295367),11,4,2,1,143
The Calgary Roman Catholic Separate School Division,St. Martha School,6020 - 4 Avenue N.E.,T2A4B1,Calgary,AB,(403) 500-2074,,stmartha@cssd.ab.ca,Elementary/Junior High,N,N,Y,Y,N,{FE3F05A2-EC54-4722-955C-EC69EE801BB8},POINT (-113.9456359 51.0565433),12,4,33,3,246
The Calgary School Division,A. E. Cross School,3445  37 St SW,T3E3C2,Calgary,AB,(403) 777-7410,,aecross@cbe.ab.ca,Junior High,N,N,N,Y,N,{F2CDED10-EAB5-4FFE-9862-7812C49BEA3E},POINT (-114.1420958 51.0232443),1,1,298,14,33
The Calgary School Division,Cedarbrae School,10631 Oakfield Dr SW,T2W2T3,Calgary,AB,(403) 777-8610,,cedarbrae@cbe.ab.ca,Elementary,N,N,Y,N,N,{9038D653-33A3-4C86-8E93-9F1D9470878E},POINT (-114.1331845 50.9583988),8,1,126,5,270
The Calgary School Division,Nelson Mandela High School,45 Saddletowne Cir NE,T3J4W3,Calgary,AB,(403) 817-3500,,nelsonmandelahigh@cbe.ab.ca,Senior High,N,N,N,N,Y,{003A205C-A14B-4850-8609-E72650EF9DA2},POINT (-113.9488457 51.1219806),9,4,180,1,184
The Calgary Roman Catholic Separate School Division,Christ the King Catholic School,333 Cranston Way SE,T3M1K6,Calgary,AB,(403) 500-2119,,christtheking@cssd.ab.ca,Elementary/Junior High,N,N,Y,Y,N,{4D1A7132-FF20-47E6-8F19-4A9389192B76},POINT (-113.9759703 50.8878369),4,3,294,8,82
The Calgary School Division,Dalhousie School,4440 Dallyn St NW,T3A1K3,Calgary,AB,(403) 777-6030,,dalhousie@cbe.ab.ca,Elementary,N,N,Y,N,N,{84EB1ACD-456C-4F7F-B916-AF4555E2A8E1},POINT (-114.1513785 51.1065269),7,2,38,4,260
The Calgary School Division,Balmoral School,220 16 Ave NW,T2M0H4,Calgary,AB,(403) 777-7330,,balmoral@cbe.ab.ca,Elementary/Junior High,N,N,Y,Y,N,{2DC4C7C5-A231-4A7D-A1B2-34B6F7E48EB3},POINT (-114.0664802 51.0678818),10,2,69,7,70
The Calgary School Division,Juno Beach Academy of Canadian Studies,315 - 86 Avenue SE,T2H1Z2,Calgary,AB,(403) 777-7210,,junobeachacademy@cbe.ab.ca,Unknown,N,N,N,N,N,{847409DF-A1BA-4120-A7BD-B8F67DEC3FF5},POINT (-114.0650625 50.9753211),10,3,174,5,81
The Calgary School Division,Saddle Ridge School,368 Saddlecrest Blvd NE,T3J5L6,Calgary,AB,(403) 777-6249,,SaddleRidge@cbe.ab.ca,Elementary,N,N,Y,N,N,{6849B451-00E4-4965-8550-14C7ADBCF337},POINT (-113.9368796 51.1368826),11,4,2,1,143
,MOUNT ROYAL UNIVERSITY - LINCOLN PARK CAMPUS,,T3E6K6,Calgary,AB,(403) 440-5000,,aro@mtroyal.ca,,Y,Y,,,,{6B4BA3CC-39A8-4620-891E-3EB721E83E95},POINT (-114.1327203 51.012805),8,1,42,2,11
The Renert School Foundation,Renert School,14 Royal Vista Link NW,T3R0K4,Calgary,AB,(587) 353-1053,,info@renertschool.ca,Elementary/Junior High/Senior High,N,N,Y,Y,Y,{F879CDB1-0553-4FF1-B8A9-714319C039E5},POINT (-114.2028365 51.151837),3,2,157,9,105
The Calgary School Division,Forest Lawn High School,1304  44 St SE,T2A1M8,Calgary,AB,(403) 272-6665,,forestlawn@cbe.ab.ca,Senior High,N,N,N,N,Y,{51B491E0-DCF9-42EF-A481-242D173FD4A2},POINT (-113.9689496 51.0424031),12,3,85,11,211
The Calgary Roman Catholic Separate School Division,St. Andrew School,4331 - 41 Avenue S.W.,T3E1G2,Calgary,AB,(403) 500-2031,,standrew@cssd.ab.ca,Elementary,N,N,Y,N,N,{67F74556-B987-4F91-8B90-47F8068978D9},POINT (-114.1477242 51.0163628),1,1,142,14,274
The Calgary Roman Catholic Separate School Division,St. Peter Elementary School,720 - 58 Street S.E.,T2A5L9,Calgary,AB,(403) 500-2079,,stpeter@cssd.ab.ca,Elementary,N,N,Y,N,N,{ECA411B1-26AF-4DD6-A738-AB3723031897},POINT (-113.949107 51.046185),12,3,30,11,244
The Calgary School Division,William Roper Hull School,2266 Woodpark Ave SW,T2W2Z8,Calgary,AB,(403) 251-8022,,williamroperhull@cbe.ab.ca,Elementary/Junior High/Senior High,N,N,Y,Y,Y,{63FD9957-38FD-496E-BA9D-0CCBA8818B60},POINT (-114.1138325 50.9483626),5,1,216,6,142
The Calgary School Division,Lester B. Pearson High School,3020  52 St NE,T1Y5P4,Calgary,AB,(403) 280-6565,,lesterbpearson@cbe.ab.ca,Senior High,N,N,N,N,Y,{71B74CFF-518B-45AD-9771-724B6E039C4F},POINT (-113.9563976 51.0769499),9,4,36,3,294
The Calgary School Division,Citadel Park School,808 Citadel Dr NW,T3G4B8,Calgary,AB,(403) 777-8063,,citadel@cbe.ab.ca,Elementary,N,N,Y,N,N,{7A214B17-DFCE-45F3-A0D1-CAF4817A876E},POINT (-114.1742345 51.1454511),3,2,247,10,177
The Calgary School Division,Dr. E. P. Scarlett High School,220 Canterbury Dr SW,T2W1H4,Calgary,AB,(403) 281-3366,,drepscarlett@cbe.ab.ca,Senior High,N,N,N,N,Y,{B526BA4D-46DB-4B39-B8EF-DE6C478396B3},POINT (-114.0879719 50.9487874),5,1,283,6,24
The Calgary School Division,Central Memorial High School,5111  21 St SW,T3E1R9,Calgary,AB,(403) 243-8880,,centralmemorial@cbe.ab.ca,Senior High,N,N,N,N,Y,{E90AC4E6-9C52-4B08-9D71-8D640A2639D3},POINT (-114.1135205 51.0079279),8,1,122,5,265
,ST. MARY'S UNIVERSITY - STUDENTS' ASSOCIATION,,T2X1Z4,Calgary,AB,(403) 531-9130,,,,Y,Y,,,,{FAEC4438-84E5-459E-B7B2-5A1FA91AA00D},POINT (-114.0663391 50.9224374),6,3,263,13,161
Rundle College Society,Rundle College Junior Senior High,7375 - 17 Avenue SW,T3H3W5,Calgary,AB,(403) 250-7180,,contactus@rundle.ab.ca,Junior High/Senior High,N,N,N,Y,Y,{2A1AD1AB-D514-4D77-9771-A18D1404B1FF},POINT (-114.1939221 51.0368941),1,1,289,14,22
The Calgary School Division,Emily Follensbee School,5139 14 ST SW,T2T3W5,Calgary,AB,(403) 777-6980,,emilyfollensbee@cbe.ab.ca,Elementary/Junior High,N,N,Y,Y,N,{F4A60FDB-50C0-4504-960B-6CEC6C6256A3},POINT (-114.0955749 51.0076359),8,1,238,5,97
The Calgary School Division,Mount Royal School,2234  14 St SW,T2T3T3,Calgary,AB,(403) 777-7980,,mountroyal@cbe.ab.ca,Junior High,N,N,N,Y,N,{CC79E656-8ECA-460B-95F4-B40B884F012F},POINT (-114.0939102 51.0347223),14,1,271,2,185
The Calgary Roman Catholic Separate School Division,St. Bernadette School,55 Lynndale Crescent S.E.,T2C0T8,Calgary,AB,(403) 500-2020,,stbernadette@cssd.ab.ca,Elementary,N,N,Y,N,N,{F1810E90-9FE2-470B-B7F0-AC562BB45EA0},POINT (-114.0091978 50.9903909),10,3,28,11,242
The Calgary Roman Catholic Separate School Division,Holy Child School,31 Silverado Terrace SW,T2X0K4,Calgary,AB,(403) 500-2130,,holychild@cssd.ab.ca,Elementary/Junior High,N,N,Y,Y,N,{75B71788-D7AB-4821-B197-B514EA3BDAED},POINT (-114.0831381 50.886183),6,1,134,6,252
The Calgary School Division,Evergreen School,367 Everstone Dr SW,T2Y0L3,Calgary,AB,,,,Elementary,N,N,Y,N,N,{7A0F9DD0-940C-4AE2-8A34-1ECBD9803098},POINT (-114.1065198 50.9169239),5,1,39,6,257
The Calgary School Division,Buchanan School,3717 Centre St NW,T2E2Y2,Calgary,AB,(403) 777-6260,,buchanan@cbe.ab.ca,Elementary,N,N,Y,N,N,{29F34BFF-C860-4454-B607-5E4D96594A75},POINT (-114.0631478 51.0856297),2,2,259,4,129
Montessori School of Calgary,Montessori School of Calgary,2201 Cliff Street S.W.,T2S2G4,Calgary,AB,(403) 229-1011,,info@msofc.ca,Elementary,N,N,Y,N,N,{EEF9BB82-E7EE-4509-9EC8-DA473346CE81},POINT (-114.0760776 51.033361),14,1,18,2,231
The Calgary Roman Catholic Separate School Division,St. Marguerite School,1100 New Brighton Drive SE,T2Z0W1,Calgary,AB,(403) 500-2127,,stmarguerite@cssd.ab.ca,Elementary,N,N,Y,N,N,{C95009A8-077D-4CD7-8173-A85E3628314C},POINT (-113.9372308 50.9211549),4,3,139,8,247
The Calgary Roman Catholic Separate School Division,St. Cyril School,2990 Cedarbrae Drive S.W.,T2W2N9,Calgary,AB,(403) 500-2070,,stcyril@cssd.ab.ca,Elementary/Junior High,N,N,Y,Y,N,{D276D4B4-4D1E-431E-9E4F-B91524FF4008},POINT (-114.1285219 50.9554935),8,1,126,5,270
The Palliser School Division,"Calgary Islamic School, Akram Jomaa Campus",2612 - 37 Avenue N.E.,T1Y5L2,Calgary,AB,(403) 248-2773,,,Elementary/Junior High/Senior High,N,N,Y,Y,Y,{996049E9-795C-4992-BE37-69AEF733A1B8},POINT (-114.0004774 51.0875899),9,4,71,3,76
The Calgary School Division,Deer Run School,2127  146 Ave SE,T2J6P8,Calgary,AB,(403) 777-6840,,deerrun@cbe.ab.ca,Elementary,N,N,Y,N,N,{325013F4-CFAB-4552-B3AF-29EB148B13AC},POINT (-114.0094545 50.9215554),6,3,168,13,71
GCA Educational Society,Glenmore Christian Academy Elementary,16520 - 24 Street S.W.,T2Y4W2,Calgary,AB,(403) 254-9050,,admin@gcaschool.com,Elementary,N,N,Y,N,N,{0A4A0387-3D5C-4EBA-AB12-81B0A85B5508},POINT (-114.115239 50.9039788),5,1,138,6,283
The Calgary Roman Catholic Separate School Division,St. Rose of Lima Junior High School,2419 50 Street NE,T1Y1Z5,Calgary,AB,(403) 500-2071,,strose@cssd.ab.ca,Elementary/Junior High,N,N,Y,Y,N,{2E82F855-EA98-4788-A9D1-A46D3C883D2C},POINT (-113.9622789 51.0758006),9,4,34,3,291
The Calgary School Division,Haysboro School,1123  87 Avenue SW,T2V0W2,Calgary,AB,(403) 777-8530,,haysboro@cbe.ab.ca,Elementary,N,N,Y,N,N,{2D120B08-FE6B-436F-87BB-27DCCBF747C5},POINT (-114.0891358 50.9754952),8,1,195,5,167
The Calgary School Division,Monterey Park School,7400 California Blvd NE,T1Y6R2,Calgary,AB,(403) 777-7233,,montereypark@cbe.ab.ca,Elementary,N,N,Y,N,N,{ED6D9BF9-BD0D-4EED-A31B-24A4B6E8FB58},POINT (-113.9304829 51.0774247),9,4,161,3,116
The Calgary Roman Catholic Separate School Division,St. Alphonsus Elementary Junior High School,928 Radnor Avenue N.E.,T2E5H5,Calgary,AB,(403) 500-2016,,stalphonsus@cssd.ab.ca,Elementary/Junior High,N,N,Y,Y,N,{1FDAFBBA-299A-4F9C-A2CE-02E955C48982},POINT (-114.0414183 51.0645497),10,4,171,11,78
The Calgary School Division,William Aberhart High School,3009 Morley Trail NW,T2M4G9,Calgary,AB,(403) 289-2551,,williamaberhart@cbe.ab.ca,Senior High,N,N,N,N,Y,{3B6A8BBB-0635-4214-93D6-0E1B96CFE612},POINT (-114.1153375 51.0786695),7,2,153,7,183
The Calgary Roman Catholic Separate School Division,St. Isidore Online School,124 24 Ave NE,T2E1W6,Calgary,AB,(403) 500-2138,,stisidore@cssd.ab.ca,Elementary/Junior High/Senior High,N,N,Y,Y,Y,{565D50F9-AD56-4A3F-B98A-13823DC980A9},POINT (-114.0611329 51.0744911),10,4,69,7,70
The Calgary Roman Catholic Separate School Division,St. Stephen School,10910 Elbow Drive S.W.,T2W1G6,Calgary,AB,(403) 500-2043,,ststephen2@cssd.ab.ca,Elementary/Junior High,N,N,Y,Y,N,{67063C9B-3B6D-4E4A-A375-8CC51B5B0269},POINT (-114.0838525 50.9556954),8,1,7,5,91
Calgary Chinese Alliance School Society,Calgary Chinese Alliance School,150 Beddington Blvd. NE,T3K2E2,Calgary,AB,(403) 274-7046,,info@ccas.school,Senior High,N,N,N,N,Y,{0416F06D-0E50-4BD2-AAB1-2CFD181BAD4D},POINT (-114.0676255 51.1257326),2,4,273,4,60
The Calgary School Division,Sam Livingston School,12011 Bonaventure Dr SE,T2J3G7,Calgary,AB,(403) 777-6890,,samlivingston@cbe.ab.ca,Elementary,N,N,Y,N,N,{7F8A9E5B-E6D0-478E-8A7B-68834DA97B08},POINT (-114.0612703 50.9454482),6,3,267,13,123
The Calgary School Division,Glendale School,2415 Kelwood Dr SW,T3E3Z8,Calgary,AB,(403) 777-8330,,glendale@cbe.ab.ca,Elementary,N,N,Y,N,N,{CFFA33E2-2BFE-4CDE-8986-AFD2201CF2B4},POINT (-114.14558 51.0324672),1,1,41,14,286
The Calgary School Division,Hidden Valley School,10959 Hidden Valley Dr  NW,T3A6J2,Calgary,AB,(403) 777-7236,,,Elementary,N,N,Y,N,N,{C0EBE635-BA51-4E1B-8F86-7FA68CBEBB8C},POINT (-114.11959 51.1502538),2,2,25,12,289
The Calgary Roman Catholic Separate School Division,St. William School,11020 Fairmount Drive S.E.,T2J0T1,Calgary,AB,(403) 500-2055,,stwilliam@cssd.ab.ca,Elementary,N,N,Y,N,N,{104F2DF0-D0A7-4802-B4D0-D44DFB371DCF},POINT (-114.0592582 50.9536216),6,3,89,5,212
Janus Academy Society,Janus Academy Junior/Senior High School,200 - 403 33 Street NE,T2H1S1,Calgary,AB,(403) 262-3333,,janus.contact@janusacademy.org,Elementary/Junior High/Senior High,N,N,Y,Y,Y,{B78A7A02-9D87-4865-AD1D-8F814B2A345F},POINT (-114.0562929 50.9774377),10,3,174,5,81
Calgary International Academy Ltd,Calgary International Academy ECS,110-1248 Livingston Way NE,T3J4A3,Calgary,AB,(403) 991-7534,,info@ciacademy.ca,Unknown,N,N,N,N,N,{EDA527B5-45BF-4102-81DF-AAA3EEDEA7F6},POINT (-113.9527894 51.1258883),11,4,2,1,143
The Calgary School Division,Project Trust,3610 - 9th Street SE,T2M4P6,Calgary,AB,(403) 777-6107,,discoveringchoices@cbe.ab.ca,Unknown,N,N,N,N,N,{B1F8CAA7-DC99-4BC4-A4AF-B36EEC729829},POINT (-114.0828403 51.0720702),7,2,17,7,256
The Calgary Roman Catholic Separate School Division,John Costello Catholic School,300 Strathcona Drive S.W.,T3H1N9,Calgary,AB,(403) 500-2003,,Johncostello@cssd.ab.ca,Elementary,N,N,Y,N,N,{354A33DD-37E7-4A5A-A312-91DD5D2778E9},POINT (-114.1807075 51.0488326),1,1,67,14,20
The Calgary Jewish Academy,Calgary Jewish Academy,6700 Kootenay Street S.W.,T2V1P7,Calgary,AB,(403) 253-3992,,officeadmin@cja.ab.ca,Elementary/Junior High,N,N,Y,Y,N,{05DB1CCF-0108-4088-A6D3-A671DE13DCAF},POINT (-114.0926065 50.9934947),8,1,29,5,243
Phoenix Education Foundation,Phoenix Education Foundation,320 19 Street S.E.,T2E6J6,Calgary,AB,(403) 265-7701,,info@phoenixfoundation.ca,Elementary/Junior High/Senior High,N,N,Y,Y,Y,{2033B175-A107-401B-A001-C6D1EACC0E15},POINT (-114.0078257 51.0502642),12,3,167,3,119
The Calgary School Division,Lake Bonavista School,1015  120 Ave SE,T2J2L1,Calgary,AB,(403) 777-6871,,lakebonavista@cbe.ab.ca,Elementary,N,N,Y,N,N,{B3ABAA4E-39B5-44F9-8012-EE068735B1E0},POINT (-114.0409238 50.944541),6,3,267,13,123
The Calgary Roman Catholic Separate School Division,St. Mary's High School,111 - 18 Avenue S.W.,T2S0B8,Calgary,AB,(403) 500-2024,,stmarys@cssd.ab.ca,Senior High,N,N,N,N,Y,{F53CCAC6-4DAE-47ED-93AA-E31294E1DD2C},POINT (-114.0640191 51.0366146),14,1,297,5,90
The Calgary School Division,Silver Springs School,7235 Silver Mead Rd NW,T3B3V1,Calgary,AB,(403) 777-6070,,silversprings@cbe.ab.ca,Elementary,N,N,Y,N,N,{2D95F23E-2E76-492D-A9FC-FE399EA4F8CC},POINT (-114.1908255 51.1057102),13,2,147,9,12
The Calgary School Division,Kenneth D. Taylor School,30 Evanscove Cir NW,T3P0A1,Calgary,AB,(403) 817-3504,,kennethdtaylor@cbe.ab.ca,Elementary,N,N,Y,N,N,{0C67DC5A-467E-4191-9F3D-4143A1D946F2},POINT (-114.1178014 51.165096),3,2,237,10,92
The Calgary Roman Catholic Separate School Division,Ecole St. Pius X School,2312 - 18 Street N.W.,T2M3T5,Calgary,AB,(403) 500-2015,,stpius@cssd.ab.ca,Elementary,N,N,Y,N,N,{6D085CEE-07C9-4660-B173-B6F217F01C0E},POINT (-114.1034063 51.0729725),7,2,63,7,51
The Calgary Roman Catholic Separate School Division,Our Lady of Grace School,736 Evanston Drive,T3P0N7,Calgary,AB,(403) 500-2124,,ourladyofgrace@cssd.ab.ca,Elementary/Junior High,N,N,Y,Y,N,{88D72F61-A28D-454C-86D9-FD50D8D77899},POINT (-114.1204866 51.1793394),3,2,237,10,92
The Calgary School Division,Bridlewood School,207 Bridleridge Way SW,T2Y0L4,Calgary,AB,,,,Elementary,N,N,Y,N,N,{EAD1EBE8-8402-44F6-8140-7CA067D2CD92},POINT (-114.110662 50.9023836),5,1,138,6,283
Renfrew Educational Services Society,Renfrew Educational Services-Janice McTighe Centre,2050 - 21 Street N.E.,T2E6S5,Calgary,AB,(403) 291-5038,,renfrew@renfreweducation.org,Elementary/Junior High,N,N,Y,Y,N,{03FE1D65-893B-4B01-9A56-7576015FB619},POINT (-114.0082917 51.069617),9,4,106,3,228
The Calgary School Division,North Haven School,4922 North Haven Dr NW,T2K2K2,Calgary,AB,(403) 777-6220,,northhaven@cbe.ab.ca,Elementary,N,N,Y,N,N,{C88726A3-C666-48F1-AA44-D45A349396C0},POINT (-114.0866128 51.0975091),2,2,61,4,277
The Calgary School Division,Hawkwood School,650 Hawkwood Blvd NW,T3G2V7,Calgary,AB,(403) 777-6410,,hawkwood@cbe.ab.ca,Elementary,N,N,Y,N,N,{048773BF-3FBB-4301-9B47-B7164534F57A},POINT (-114.1787461 51.1306569),3,2,248,10,176
Foothills Academy Society,Foothills Academy,745 - 37 Street N.W.,T2N4T1,Calgary,AB,(403) 270-9400,,abarber@foothillsacademy.org,Elementary/Junior High/Senior High,N,N,Y,Y,Y,{FC242467-BDD4-4DCF-ACC7-BBCF34F38129},POINT (-114.1423066 51.0640722),7,2,91,7,214
The Calgary Roman Catholic Separate School Division,Holy Angels School,275 Riverglen Drive SE,T2C3T5,Calgary,AB,(403) 500-2101,,holyangels@cssd.ab.ca,Elementary,N,N,Y,N,N,{1BFFCB25-26D6-4CE8-A096-01B86F990466},POINT (-114.0100177 50.9740953),10,3,19,8,234
Renfrew Educational Services Society,Renfrew Thomas W. Buchanan Centre,2050 - 21 Street N.E.,T2X3V4,Calgary,AB,(403) 291-5038,,renfrew@renfreweducation.org,Elementary/Junior High,N,N,Y,Y,N,{4C0B45B9-098D-4473-8075-E7082A9A1A90},POINT (-114.0560057 50.9019437),6,3,52,13,128
Capstone Engineering Academy,Capstone Engineering Academy,6115 - 10th Street SE,T2H2Z9,Calgary,AB,(403) 930-3535,,dean@capstoneacad.ca,Elementary/Junior High/Senior High,N,N,Y,Y,Y,{F828B8F4-E877-4806-BF28-7FFC5D64CF9C},POINT (-114.0399857 50.9982805),10,3,109,11,206
The Calgary School Division,Samuel W. Shaw School,115 Shannon Dr SW,T2Y0K6,Calgary,AB,(403) 777-6163,,,Elementary/Junior High,N,N,Y,Y,N,{80CC2931-CC87-447A-AE51-E3A7BB9FFC5D},POINT (-114.0873756 50.9081321),5,1,115,6,281
The Calgary Roman Catholic Separate School Division,Bishop Carroll High School,4624 Richard Road S.W.,T3E6L1,Calgary,AB,(403) 500-2056,,bishopcarroll@cssd.ab.ca,Senior High,N,N,N,N,Y,{0FA8E84E-8D74-4DA5-8001-CF242F24FA3D},POINT (-114.1207915 51.0126936),8,1,199,2,50
The Calgary School Division,Mountain Park School,312 Mt Douglas Close SE,T2Z4Y1,Calgary,AB,(403) 777-6442,,mountainpark@cbe.ab.ca,Elementary/Junior High,N,N,Y,Y,N,{A0C0E31A-A744-45BA-8855-47C92F4F0979},POINT (-113.9818799 50.9237983),4,3,296,13,89
The Calgary School Division,Erin Woods School,25 Erin Park Dr SE,T2B2Z9,Calgary,AB,(403) 777-8140,,erinwoods@cbe.ab.ca,Elementary,N,N,Y,N,N,{41F54DD6-60A9-4B90-B1CA-42881ACF5A99},POINT (-113.9657774 51.0226997),12,3,35,11,293
The Calgary School Division,Taradale School,170 Taravista Dr NE,,Calgary,AB,(403) 777-6270,,taradale@cbe.ab.ca,Elementary,N,N,Y,N,N,{A87C2F4B-E6C1-46A7-B218-7DBD145B1234},POINT (-113.9377551 51.1212531),11,4,26,1,290
The Calgary School Division,Brentwood School,1231 Northmount Dr NW,T2L0C9,Calgary,AB,(403) 777-6130,,brentwood@cbe.ab.ca,Elementary,N,N,Y,N,N,{2BB30A1A-7B35-48FF-AA91-EC4F0E75B5DC},POINT (-114.123858 51.0904895),7,2,50,4,280
The Calgary Roman Catholic Separate School Division,Sacred Heart Elementary School,1312 - 15 Street S.W.,T3C0T6,Calgary,AB,(403) 500-2004,,sacredheart@cssd.ab.ca,Elementary,N,N,Y,N,N,{8795BC4A-1C5A-4FB0-9050-B8405967FF46},POINT (-114.0966258 51.0409252),14,1,136,2,235
Columbia College Calgary,Columbia College,802 Manning Road N.E.,T2E7N8,Calgary,AB,(403) 235-9300,,registrar@columbia.ca,Senior High,N,N,N,N,Y,{F5E6C7A8-7315-472B-8FCA-45B51602F575},POINT (-114.018022 51.0570018),12,4,167,3,119
The Calgary School Division,McKenzie Towne School,679 Prestwick Cir SE,T2Z0V3,Calgary,AB,,,mckenzietowneSchool@cbe.ab.ca,Elementary,N,N,Y,N,N,{E2D3FB7F-CBDA-4CE6-941B-BC97B2640C96},POINT (-113.9667175 50.9270487),4,3,46,8,287
The Southern Francophone Education Region,École de la Rose sauvage,2512 - 4 Street N.W.,T2M2Z9,Calgary,AB,(403) 230-3112,,,Junior High/Senior High,N,N,N,Y,Y,{BE4FDBC8-7894-4428-A56B-5E09402DD723},POINT (-114.0703034 51.0748446),7,2,17,7,256
The Calgary School Division,Olympic Heights School,875 Strathcona Dr SW,T3H2Z7,Calgary,AB,(403) 777-8370,,olympicheights@cbe.ab.ca,Elementary,N,N,Y,N,N,{4620E342-2AAE-4D4D-B5C9-37106D71EB1F},POINT (-114.1807765 51.0459676),1,1,67,14,20
Calgary International Academy Ltd,Calgary International Academy,110-1248 Livingston Way NE,T3G5J7,Calgary,AB,(403) 991-7534,,info@ciacademy.ca,Elementary,N,N,Y,N,N,{F2007972-2DC5-4649-9485-586319C4104E},POINT (-114.231867 51.1391189),3,2,252,9,13
The Calgary School Division,Sherwood School,2011  66 Ave SE,T2C1J4,Calgary,AB,(403) 777-7590,,sherwood@cbe.ab.ca,Elementary/Junior High,N,N,Y,Y,N,{550BA359-BB65-4A13-87CD-21A18B533A1C},POINT (-114.0114784 50.9936967),10,3,28,11,242
The Chinese Academy Foundation,The Chinese Academy,"#191, 1518 
Centre Street N.E.",T2K1C2,Calgary,AB,(403) 777-7663,,thechineseacademy@gmail.com,Senior High,N,N,N,N,Y,{9F9F1900-987A-445D-86B7-2067C0A60C09},POINT (-114.0701312 51.1127974),2,2,261,4,158
North Point School for Boys,North Point School for Boys,2445 - 23 Avenue SW,T2T0W3,Calgary,AB,(403) 744-5214,,,Elementary/Junior High,N,N,Y,Y,N,{2CBEC92B-8802-4FBA-88B8-F681AEA82709},POINT (-114.1174839 51.0325564),14,1,181,2,282
The Calgary School Division,Edgemont School,55 Edgevalley Cir NW,T3A4X1,Calgary,AB,(403) 777-6340,,edgemont@cbe.ab.ca,Elementary,N,N,Y,N,N,{92910437-1814-4F7E-B12D-AF0EFDDB40EE},POINT (-114.1435785 51.1288887),2,2,272,4,59
The Calgary School Division,Joane Cardinal-Schubert High School,19480 45 St SE,T3M2P9,Calgary,AB,(403) 817-3600,,saglassford@cbe.ab.ca,Senior High,N,N,N,N,Y,{59A4ED67-7086-4B8E-97B7-EBC37FC7C301},POINT (-113.9440104 50.8780222),4,3,90,8,197
The Calgary Roman Catholic Separate School Division,St. Anthony,4811 6th St. SW,T2S2N5,Calgary,AB,(403) 500-2013,,stanthony@cssd.ab.ca,Elementary/Junior High/Senior High,N,N,Y,Y,Y,{904534B5-D9B6-4117-990C-A987050A7D97},POINT (-114.0793009 51.0101091),8,1,143,5,275
The Calgary School Division,Louis Riel School,9632 Oakfield Dr SW,T2V0L1,Calgary,AB,(403) 777-7650,,louisriel@cbe.ab.ca,Elementary/Junior High,N,N,Y,Y,N,{99D9ED76-EEF5-4448-8822-C393DB359FFE},POINT (-114.1322579 50.9667311),8,1,217,5,155
The Calgary Roman Catholic Separate School Division,St. Dominic School,4820 Dalhart Road N.W.,T3A1C2,Calgary,AB,(403) 500-2058,,stdominic@cssd.ab.ca,Elementary,N,N,Y,N,N,{BB85FDBC-149C-41C7-802C-74AB97D4C4E5},POINT (-114.1542441 51.1095588),7,2,38,4,260
The Calgary School Division,Haultain Memorial School,605 Queensland Dr SE,T2J4S8,Calgary,AB,(403) 777-6860,,haultainmemorial@cbe.ab.ca,Elementary,N,N,Y,N,N,{F0220CAB-2E6B-4CFD-9C4A-C04B7A275B09},POINT (-114.0233187 50.9395442),6,3,215,13,141
The Calgary School Division,Ted Harrison School,215 Taravista Way NE,T3J4L1,Calgary,AB,(403) 817-3330,,TedHarrison@cbe.ab.ca,Elementary/Junior High,N,N,Y,Y,N,{E9F677C5-5E90-4E33-86C3-721EA349BC26},POINT (-113.9282542 51.1172328),11,4,26,1,290
The Calgary School Division,Lord Beaverbrook High School,9019 Fairmount Dr SE,T2H0Z4,Calgary,AB,(403) 259-5585,,lordbeaverbrook@cbe.ab.ca,Senior High,N,N,N,N,Y,{5346D19E-5EEF-42E8-91C7-A8E92EA482CD},POINT (-114.0616396 50.9730998),10,3,174,5,81
The Calgary School Division,Marion Carson School,5225 Varsity Dr NW,T3A1A7,Calgary,AB,(403) 777-6050,,MarionCarson@cbe.ab.ca,Elementary,N,N,Y,N,N,{4FFD45CB-AFBD-4676-9F94-3E74EBF3DCFF},POINT (-114.1614063 51.0929166),13,2,269,9,127
The Calgary School Division,Jack James High School,5105  8 Ave SE,T2A4M1,Calgary,AB,(403) 248-4054,,jackjames@cbe.ab.ca,Senior High,N,N,N,N,Y,{82990B1B-4B7D-4ECA-91D0-1D4A48822BD4},POINT (-113.960368 51.0445688),12,3,85,11,211
The Calgary School Division,Nose Creek School,135 Covepark Sq NE,T3K5W9,Calgary,AB,(403) 817-3360,,,Elementary/Junior High,N,N,Y,Y,N,{E181F136-91B4-4A85-9CB4-1E8DB73D9020},POINT (-114.0606997 51.1671496),11,4,251,12,8
The Calgary Roman Catholic Separate School Division,St. Michael School,4511 - 8 Avenue S.W.,T3C0G9,Calgary,AB,(403) 500-2021,,stmichael@cssd.ab.ca,Elementary/Junior High,N,N,Y,Y,N,{3DF180B9-EFF9-4963-8B2D-CBCDF00D6577},POINT (-114.1515775 51.0447849),14,1,281,2,36
Almadina School Society,"Almadina Language Charter Academy, Mountain View Campus",2031 Sable Drive S.E.,T2B1R9,Calgary,AB,(403) 543-5074,,,Elementary,N,N,Y,N,N,{904C8D65-C76D-4C04-A0D5-0B56606C0820},POINT (-113.986831 51.0322005),12,3,15,11,49
The Calgary Roman Catholic Separate School Division,St. Henry Elementary School,7423 - 10 Street N.W.,T2K1H5,Calgary,AB,(403) 500-2059,,sthenry@cssd.ab.ca,Elementary,N,N,Y,N,N,{50D8B5FA-6C5E-4005-B2AF-F0555AC06D1D},POINT (-114.0801778 51.1175975),2,2,261,4,158
The Calgary School Division,CLS Alternative Site,45 Saddletowne Circle NE,T3J4W3,Calgary,AB,(403) 777-7272,,chinooklearning@cbe.ab.ca,Unknown,N,N,N,N,N,{562D0E70-E68F-43CA-A9FF-43341DCFE645},POINT (-113.9488457 51.1219806),9,4,180,1,184
The Calgary School Division,Rosedale School,905 13 Ave NW,T2M0G3,Calgary,AB,(403) 777-7530,,rosedale@cbe.ab.ca,Elementary/Junior High,N,N,Y,Y,N,{D309125F-3C91-464C-8251-75BFF794EF31},POINT (-114.0814991 51.0635971),7,2,219,7,144
The Calgary Roman Catholic Separate School Division,St. Patrick School,6006 Rundlehorn Drive N.E.,T1Y2X1,Calgary,AB,(403) 500-2076,,stpatrick@cssd.ab.ca,Elementary,N,N,Y,N,N,{4E6D7B24-861E-4D31-9F08-F40294117C79},POINT (-113.9467028 51.07199),9,4,36,3,294
The Calgary School Division,Woodman School,8706 Elbow Dr SW,T2V1L2,Calgary,AB,(403) 777-7490,,woodman@cbe.ab.ca,Elementary/Junior High,N,N,Y,Y,N,{6D4ADD34-78DE-45BA-9D42-9BF2A9A8D83A},POINT (-114.083213 50.9756583),8,1,195,5,167
The Palliser School Division,Trinity Christian School,"#100, 295 Midpark Way S.E.",T2X2A8,Calgary,AB,(403) 254-6682,,,Elementary/Junior High,N,N,Y,Y,N,{D69D01DB-945F-4DC8-8B4A-75D10FE6FCB7},POINT (-114.0622367 50.9093283),6,3,263,13,161
The Calgary School Division,Tom Baines School,250 Edgepark Blvd NW,T3A3S2,Calgary,AB,(403) 777-7190,,tombaines@cbe.ab.ca,Elementary/Junior High,N,N,Y,Y,N,{4EA3F2CF-7203-494E-AA94-8070440910F0},POINT (-114.1569935 51.1335144),2,2,272,4,59
The Calgary School Division,Discovering Choices II,#101 495 36 ST NE,T2A6K3,Calgary,AB,(403) 777-8384,,discoveringchoices@cbe.ab.ca,Senior High,N,N,N,N,Y,{1B730C63-EE22-4C5E-9577-14B69366CFC1},POINT (-113.9849703 51.056524),12,4,84,3,213
Access International College (Calgary) Incorporated,Access Academy,B1 - 2451 Dieppe Avenue S.W.  Box 100,T3E7K1,Calgary,AB,(403) 455-3033,,info@accessacademy.ca,Junior High/Senior High,N,N,N,Y,Y,{E06B0CF5-BCC0-4826-BBBF-1747C33CB9C1},POINT (-114.1190388 51.0192866),8,1,199,2,50
The Calgary School Division,Colonel J. Fred Scott School,171 Whitehorn Rd NE,T1Y3C4,Calgary,AB,(403) 777-6710,,coloneljfredscott@cbe.ab.ca,Elementary,N,N,Y,N,N,{C5EFEBD8-C23A-49AD-9D67-0196C0037819},POINT (-113.9681644 51.0877669),9,4,145,3,251
The Calgary Roman Catholic Separate School Division,Our Lady of the Rosary School,41 Cranston Gate SE,T3M0W7,Calgary,AB,(403) 500-2126,,ourladyrosary@cssd.ab.ca,Elementary,N,N,Y,N,N,{C912C9B0-1C66-4E33-99A5-E11D6F75C36E},POINT (-113.9682061 50.8744292),4,3,294,8,82
Connect Charter School Society,Connect Charter School,5915 Lewis Drive S.W.,T3E5Z4,Calgary,AB,(403) 282-2890,,office@connectcharter.ca,Elementary/Junior High,N,N,Y,Y,N,{84B5954B-CF1F-4024-84C4-66644A4AC014},POINT (-114.1357584 51.0003735),8,1,129,5,266
The Calgary School Division,Captain Nichola Goddard School,405 Panatella Blvd NW,T3K0P3,Calgary,AB,(403) 817-3300,,CaptainNicholaGoddard@cbe.ab.ca,Elementary/Junior High,N,N,Y,Y,N,{C98CDB1E-0E83-43A0-A340-33F40D1C13CD},POINT (-114.0886788 51.1624509),11,2,235,12,95
The Calgary Roman Catholic Separate School Division,St. Joan of Arc Elementary/Junior High School,7970 Wentworth Drive SW,T3H0K2,Calgary,AB,(403) 500-2107,,st.joanofarc@cssd.ab.ca,Elementary/Junior High,N,N,Y,Y,N,{4B579E6D-1952-4C72-BA04-BE4F7EB09309},POINT (-114.2072404 51.0571247),1,1,114,14,194
The Calgary School Division,Scenic Acres School,50 Scurfield Way NW,T3L1T2,Calgary,AB,(403) 777-6193,,scenicacres@cbe.ab.ca,Elementary,N,N,Y,N,N,{41969CEE-5B46-4867-8ACA-642C9AF8FA10},POINT (-114.2156566 51.1200891),13,2,148,9,48
The Calgary School Division,Coventry Hills School,12350 Coventry Hills Way NE,T3K5S9,Calgary,AB,(403) 777-6025,,coventryhills@cbe.ab.ca,Elementary,N,N,Y,N,N,{297C49A5-00C8-478E-A363-07ABACF5951D},POINT (-114.0514137 51.1651804),11,4,251,12,8
The Calgary Roman Catholic Separate School Division,St. Philip School,13825 Parkside Drive S.E.,T2J5A8,Calgary,AB,(403) 500-2072,,stphilip@cssd.ab.ca,Elementary,N,N,Y,N,N,{251BA84D-C496-4264-AD58-A082D24DFFCD},POINT (-114.0382746 50.9278826),6,3,117,13,261
,ALBERTA UNIVERSITY OF THE ARTS,,T2N4R3,Calgary,AB,(403) 284-7600,,infodesk@auarts.ca,,Y,Y,,,,{D5224E6A-49B0-4BE8-98EB-46CD537C6403},POINT (-114.0916052 51.0620065),7,2,40,7,285
The Calgary School Division,Banting and Best School,1819 66 Avenue SE,T2C2K5,Calgary,AB,(403) 777-8650,,bantingandbest@cbe.ab.ca,Elementary,N,N,Y,N,N,{06838B27-E429-4A86-A289-B6B5C341BA73},POINT (-114.0138538 50.993726),10,3,28,11,242
The Calgary School Division,Radisson Park School,2805 Radcliffe Dr SE,T2A0C8,Calgary,AB,(403) 777-8070,,radissonpark@cbe.ab.ca,Elementary,N,N,Y,N,N,{66BBCA43-DB67-48D7-8DF0-A25003A8AFD4},POINT (-113.992233 51.0461614),12,3,121,11,264
Westmount Charter School Society,Westmount Elementary School,728 - 32 Street NW,T2N2V9,Calgary,AB,(403) 217-0426,,ecadmin@westmountcharter.com,Elementary,N,N,Y,N,N,{C09FE6D9-70F3-420A-BB31-B9A54C20FC6C},POINT (-114.1314284 51.0581476),7,2,91,7,214
The Calgary School Division,West Dalhousie School,6502  58 St NW,T3A2C8,Calgary,AB,(403) 777-6110,,westdalhousie@cbe.ab.ca,Elementary,N,N,Y,N,N,{D0FBF1CB-A3FD-4D29-A2D6-DE702BCE74C3},POINT (-114.1695389 51.1111682),7,2,38,4,260
The Calgary School Division,Falconridge School,1331 Falconridge Dr NE,T3J1T4,Calgary,AB,(403) 777-6730,,falconridge@cbe.ab.ca,Elementary,N,N,Y,N,N,{963BF274-FB57-4303-9039-B3ABA367841B},POINT (-113.9454326 51.0993641),9,4,56,1,278
The Calgary School Division,Elbow Park School,721  38 Ave SW,T2T2H8,Calgary,AB,(403) 817-3408,,elbowpark@cbe.ab.ca,Elementary,N,N,Y,N,N,{DEEBC047-2FD9-41DF-9D0C-5AD8B2B35433},POINT (-114.082197 51.0195775),8,1,70,5,75
The Calgary School Division,Terry Fox School,139 Falshire Dr NE,T3J1P7,Calgary,AB,(403) 777-8800,,terryfox@cbe.ab.ca,Junior High,N,N,N,Y,N,{73914DD7-672B-47B5-859A-8514AF1C7D2C},POINT (-113.945104 51.1046569),9,4,56,1,278
River Valley School Society,River Valley School ECS,3127 Bowwood Drive N.W.,T3B2E7,Calgary,AB,(403) 246-2275,,info@rivervalleyschool.ca,Unknown,N,N,N,N,N,{4B51FD04-19E2-45F9-B9E4-0EF56AE6EE65},POINT (-114.1743441 51.0794694),13,2,149,9,77
,UNIVERSITY OF CALGARY - MAIN CAMPUS - MACEWAN STUDENT CENTRE,,,Calgary,AB,(403) 210-7625,,,,Y,Y,,,,{4A76546B-3C4A-407C-984D-8FB5E3A191CA},POINT (-114.1317144 51.0782092),13,2,287,7,179
The Calgary School Division,Alex Munro School,427 78 Ave NE,T2K0R9,Calgary,AB,(403) 777-6600,,alexmunro@cbe.ab.ca,Elementary,N,N,Y,N,N,{DAD62086-8D9D-400F-8ADD-62A491FF43E5},POINT (-114.0613952 51.1206474),2,4,261,4,158
Foundations for the Future Charter Academy Charter School Society,FFCA High School Campus,2116 McKay Road N.W.,T3B1C7,Calgary,AB,(403) 243-3316,,wanda.amundson@ffca-calgary.com,Junior High/Senior High,N,N,N,Y,Y,{AB095771-E088-418D-9B19-B0C91E951018},POINT (-114.1518221 51.0702014),13,2,24,7,239
The Calgary Roman Catholic Separate School Division,St. Hubert Elementary School,320 - 72 Avenue N.E.,T2K5J3,Calgary,AB,(403) 500-2067,,sthubert@cssd.ab.ca,Elementary,N,N,Y,N,N,{6D5CFBF9-B5E1-411F-AA58-F652CCA82738},POINT (-114.0622133 51.1183759),2,4,261,4,158
The Calgary School Division,Canyon Meadows School,395 Canterbury Dr SW,T2W1J1,Calgary,AB,(403) 777-8600,,canyonmeadows@cbe.ab.ca,Elementary,N,N,Y,N,N,{CA4A09B8-F548-4016-86C1-74A270BA8FB8},POINT (-114.0780912 50.9474104),5,1,283,6,24
The Calgary Roman Catholic Separate School Division,Bishop Kidd School,1420 - 28 Street S.E.,T2A0Y8,Calgary,AB,(403) 500-2052,,bishop.kidd@cssd.ab.ca,Junior High,N,N,N,Y,N,{5AC500B2-0ACA-490F-839C-E82954775A6C},POINT (-113.9921286 51.0405768),12,3,121,11,264
The Calgary School Division,Hillhurst School,1418  7 Ave NW,T2N0Z2,Calgary,AB,(403) 777-6360,,hillhurst@cbe.ab.ca,Elementary,N,N,Y,N,N,{25E215E7-AE3F-48C1-89EB-481019B74CC5},POINT (-114.0931372 51.0592948),7,2,40,7,285
Janus Academy Society,Janus Academy,200 - 403 33 Street NE,T2A1X5,Calgary,AB,(403) 262-3333,,janus.contact@janusacademy.org,Elementary/Junior High,N,N,Y,Y,N,{4F979179-672F-4343-A220-93648914CDCE},POINT (-113.9875326 51.0553661),12,4,84,3,213
The Calgary School Division,The Hamptons School,10330 Hamptons Blvd NW,T3A6G2,Calgary,AB,(403) 777-7300,,hamptons@cbe.ab.ca,Elementary,N,N,Y,N,N,{6079B352-4E93-49EA-B91A-03452BB1FEDC},POINT (-114.148507 51.1434457),3,2,286,10,27
The Calgary Roman Catholic Separate School Division,St. Anne Academic Centre,1010 - 21 Avenue S.E.,T2G1N2,Calgary,AB,(403) 500-2012,,stanne@cssd.ab.ca,Elementary/Junior High/Senior High,N,N,Y,Y,Y,{8C3506D3-F72A-47D2-9189-FE4E88A14376},POINT (-114.0389181 51.0351393),10,3,132,11,193
The Calgary School Division,Marlborough School,4711 Maryvale Dr NE,T2A3A1,Calgary,AB,(403) 777-8190,,marlborough@cbe.ab.ca,Elementary,N,N,Y,N,N,{51A75683-983C-4D84-8140-1592970CC25F},POINT (-113.9654996 51.0560836),12,4,77,3,80
The Calgary Roman Catholic Separate School Division,St. Thomas Aquinas School,4540 - 26 Avenue S.W.,T3E0R1,Calgary,AB,(403) 500-2027,,stthomasaquinas@cssd.ab.ca,Elementary,N,N,Y,N,N,{ED0D7B79-5B36-4F9B-8A1D-06C57AD24D9D},POINT (-114.1518544 51.0309722),1,1,41,14,286
The Calgary School Division,Panorama Hills School,1057 Panorama Hills Dr NW,T3K0S4,Calgary,AB,(403) 777-6061,,panoramahills@cbe.ab.ca,Elementary,N,N,Y,N,N,{AD42E077-5A99-4EB1-A5A2-5BA7AD332DA9},POINT (-114.0859214 51.155814),11,2,235,12,95
The Calgary School Division,West View School,Calgary Young Offender Centre  12626 - 85 Street N.W.,T3R1J3,Calgary,AB,(403) 662-3547,,westview@cbe.ab.ca,Junior High/Senior High,N,N,N,Y,Y,{9B749DEA-6270-48C4-BF91-0789B0BB67C6},POINT (-114.2080136 51.1655306),3,2,204,10,102
The Calgary School Division,Start Outreach,3610 9th Street SE,T3B5C2,Calgary,AB,(403) 777-6107,,discoveringchoices@cbe.ab.ca,Senior High,N,N,N,N,Y,{BD5D9C0C-A1AB-4CA7-9778-343B6C10AD1B},POINT (-114.2019032 51.0894295),13,2,149,9,77
The Calgary School Division,Roland Michener School,5958  4 Ave NE,T2A4B1,Calgary,AB,(403) 777-8240,,rolandmichener@cbe.ab.ca,Elementary,N,N,Y,N,N,{8C43AF56-EB8B-4FD0-9015-7FDA577D8349},POINT (-113.9473997 51.0570194),12,4,33,3,246
The Calgary Roman Catholic Separate School Division,St. Brigid,"730 Citadel Way, N.W.",T3G5S6,Calgary,AB,(403) 500-2113,,stbrigid@cssd.ab.ca,Elementary/Junior High,N,N,Y,Y,N,{686D8F0A-9083-4059-BE82-B27AA3C0A1F7},POINT (-114.1877229 51.1463403),3,2,247,10,177
The Southern Francophone Education Region,École de la Source,360 - 94 Avenue S.E.,T2J0E8,Calgary,AB,(403) 255-6724,,,Elementary/Junior High,N,N,Y,Y,N,{2619217E-00AB-4FC3-ADEB-856BC3B9CAF9},POINT (-114.0618249 50.969234),10,3,174,5,81
Westmount Charter School Society,Westmount Mid/High School,2215 Uxbridge Dr. N.W.,T2N4Y3,Calgary,AB,,,mhadmin@westmountcharter.com,Elementary/Junior High/Senior High,N,N,Y,Y,Y,{2F697459-4221-4B49-9F38-B6A4E944C5DE},POINT (-114.1325128 51.0710476),13,2,274,7,61
The Calgary School Division,Bishop Pinkham School,3304  63 Ave SW,T3E5K1,Calgary,AB,(403) 777-7840,,bishoppinkham@cbe.ab.ca,Junior High,N,N,N,Y,N,{24D50D4C-1325-46B5-8CFE-D1D493F3BB99},POINT (-114.1306992 50.997263),8,1,129,5,266
The Calgary Roman Catholic Separate School Division,St. Boniface Elementary School,927 Lake Sylvan Drive S.E.,T2J2P8,Calgary,AB,(403) 500-2060,,stboniface@cssd.ab.ca,Elementary,N,N,Y,N,N,{C8DABC17-2723-4B87-A7F2-5C2872DC6753},POINT (-114.0423413 50.9430637),6,3,267,13,123
The Calgary School Division,Annie Foote School,6320 Temple Dr NE,T1Y5V5,Calgary,AB,(403) 777-6680,,anniefoote@cbe.ab.ca,Elementary,N,N,Y,N,N,{C2A9FFAC-0DC0-4063-8364-8EF1961334D9},POINT (-113.9403303 51.0859886),9,4,22,3,237
The Calgary School Division,North Trail High School,12500 Harvest Hills Blvd. NE,T3K2S3,Calgary,AB,(403) 817-4000,,schoolimprovement@cbe.ab.ca,Junior High/Senior High,N,N,N,Y,Y,{EDCFB302-2C53-4818-84C7-873D9FA1844D},POINT (-114.0664551 51.1675814),11,4,251,12,8
The Calgary Roman Catholic Separate School Division,Monsignor E. L. Doyle Elementary School,8887 Scurfield Drive NW,T3L1H6,Calgary,AB,(403) 500-2098,,,Elementary,N,N,Y,N,N,{A748E3C9-739D-4DDB-977A-C42D1EB4754E},POINT (-114.2164244 51.1220284),13,2,148,9,48
The Calgary School Division,Dr. Freda Miller School,211 Everbrook Dr SW,T2Y0E8,Calgary,AB,(403) 817-3428,,drfredamiller@cbe.ab.ca,Elementary,N,N,Y,N,N,{37FEAEE1-E357-4661-9E6C-730E48B970BF},POINT (-114.1160186 50.9208504),5,1,39,6,257
The Calgary Roman Catholic Separate School Division,St. Rupert School,111 Rundlehill Drive N.E.,T1Y2W9,Calgary,AB,(403) 500-2044,,strupert@cssd.ab.ca,Elementary,N,N,Y,N,N,{31841557-F5B1-4C7E-A4A7-81A36CABA864},POINT (-113.9705266 51.0769132),9,4,34,3,291
The Calgary Roman Catholic Separate School Division,Holy Trinity School,1717 - 41 Street S.E.,T2A1L2,Calgary,AB,(403) 500-2032,,holytrinity@cssd.ab.ca,Elementary,N,N,Y,N,N,{802C1AC3-EA51-4CF5-8CF6-45B23531F4A8},POINT (-113.9749456 51.03897),12,3,85,11,211
The Calgary School Division,Guy Weadick School,5612 Templehill Rd NE,T1Y4W7,Calgary,AB,(403) 777-6740,,guyweadick@cbe.ab.ca,Elementary,N,N,Y,N,N,{0C9C1CBC-DDCC-4EC1-8148-E6021DC1B5F1},POINT (-113.9529749 51.0869883),9,4,22,3,237
Neriah Christian School Society of the Netherlands Reformed Congregation,Neriah Christian School,400 Midpark BLVD,T2X2K4,Calgary,AB,(587) 317-6805,,darlene.dekker@neriahcs.ca,Elementary/Junior High,N,N,Y,Y,N,{6FD91A97-CF22-4BA4-835E-4C74C760737D},POINT (-114.0588078 50.90852),6,3,263,13,161
The Calgary School Division,Bob Edwards School,4424 Marlborough Dr NE,T2A2Z5,Calgary,AB,(403) 777-7770,,bobedwards@cbe.ab.ca,Elementary/Junior High,N,N,Y,Y,N,{510C03C2-1200-401F-BD24-18B5349323E5},POINT (-113.9687737 51.0599294),12,4,77,3,80
The Calgary School Division,Dr. E. W. Coffin School,5615 Barrett Dr NW,T2L1W4,Calgary,AB,(403) 777-6190,,drewcoffin@cbe.ab.ca,Elementary,N,N,Y,N,N,{957EDF9F-B26B-4D09-8174-16933F2B432E},POINT (-114.1347991 51.1037526),7,2,50,4,280
The Canadian Reformed School Society of Calgary,Tyndale Christian School,28 Hart Estates Blvd. NE,T1X0L3,Calgary,AB,(403) 590-5881,,tcs@tyndalecalgary.ca,Elementary/Junior High/Senior High,N,N,Y,Y,Y,{EF252AFA-09D2-4CF8-BDC6-BE2D1A161E44},POINT (-113.8677457 51.0586339),12,4,179,11,84
Ahmadiyya Muslim Schools Society Alberta,Ahmadiyya Muslim School,4353,T3J4L3,Calgary,AB,(403) 355-6313,,info.calgary@ahmadiyyaschool.ca,Elementary/Junior High,N,N,Y,Y,N,{734F2F9B-1161-4520-99AB-C0FEE6CA9DFA},POINT (-113.9712639 51.1018352),9,4,80,1,225
The Palliser School Division,Master's College,4414 Crowchild Trail SW,T2T5J4,Calgary,AB,(403) 242-7034,,,Junior High/Senior High,N,N,N,Y,Y,{D782B939-71B3-42EE-ABB5-CA8D789C6BDD},POINT (-114.1165458 51.0153024),8,1,201,2,267
The Calgary School Division,Highwood School,11 Holmwood Ave NW,T2K2G5,Calgary,AB,(403) 777-6200,,highwood@cbe.ab.ca,Elementary,N,N,Y,N,N,{9E8B92E0-C35C-4A3D-94C9-518B5BA31262},POINT (-114.0765328 51.0922436),7,2,37,4,295
The Calgary School Division,CLS Lord Shaughnessy Writing Centre,2336 53 Ave SW,T3E1L2,Calgary,AB,(403) 777-7272,,chinooklearning@cbe.ab.ca,Unknown,N,N,N,N,N,{2FBB0DFE-588C-4593-A6BA-347102AF5A97},POINT (-114.1139277 51.0065169),8,1,122,5,265
The Calgary School Division,Cambrian Heights School,640 Northmount Dr NW,T2K3J5,Calgary,AB,(403) 777-6150,,cambrianheights@cbe.ab.ca,Elementary,N,N,Y,N,N,{B72C7287-7732-4C78-8A5B-BC23EBB10A7E},POINT (-114.0879744 51.0853517),7,2,276,4,66
The Calgary School Division,Collingwood School,3826 Collingwood Dr NW,T2L0R6,Calgary,AB,(403) 777-6180,,collingwood@cbe.ab.ca,Elementary,N,N,Y,N,N,{766E0504-330B-45D3-96D6-0155AA0ABAF1},POINT (-114.1032575 51.0857819),7,2,214,4,108
The Calgary Roman Catholic Separate School Division,Our Lady of the Rockies High School,111 Haddon Road S.W.,T2V2Y2,Calgary,AB,(403) 500-2047,,ourladyoftherockies@cssd.ab.ca,Senior High,N,N,N,N,Y,{8E0FDC14-D3CE-4F6B-B540-D502649409E5},POINT (-114.078741 50.9754378),8,1,195,5,167
The Calgary School Division,Project Trust,3610 - 9th Street SE,T2M4P6,Calgary,AB,(403) 777-6107,,discoveringchoices@cbe.ab.ca,Unknown,N,N,N,N,N,{1264567C-7003-421E-A32D-D75B983151B1},POINT (-114.0828403 51.0720702),7,2,17,7,256
Alberta Classical Academy Ltd.,Calgary Classical Academy Currie Campus,2415 Battleford Ave SW,T3E7K9,Calgary,AB,(587) 885-3688,,info@classicalacademy.ca,Elementary/Junior High,N,N,Y,Y,N,{5414B219-C0B7-4C02-A779-CBB3473AC85C},POINT (-114.1190467 51.0176444),8,1,199,2,50
The Calgary Roman Catholic Separate School Division,St. Ambrose School,1500 Arbour Lake Road N.W.,T3G4X9,Calgary,AB,(403) 500-2100,,stambrose@cssd.ab.ca,Elementary/Junior High,N,N,Y,Y,N,{A4843166-E5AE-45AE-BB9E-76E1626DFC4B},POINT (-114.2061578 51.1334667),3,2,244,10,173
Clear Water Academy Foundation,Clear Water Academy,3910 Quesnay Wood Drive SW,T3E8G1,Calgary,AB,(403) 217-8448,,btomiak@clearwateracademy.com,Elementary/Junior High/Senior High,N,N,Y,Y,Y,{6020A980-690F-4349-BF1D-6DC7BFCDC979},POINT (-114.1230926 51.0188767),8,1,199,2,50
The Calgary School Division,Dr. Roberta Bondar School,1580 Strathcona Dr SW,T3H5B1,Calgary,AB,(403) 817-3564,,drrobertabondar@cbe.ab.ca,Elementary,N,N,Y,N,N,{B2ED2C0B-B8D4-429B-B0F4-472F8D98FBB8},POINT (-114.2055305 51.0503367),1,1,67,14,20
The Prairie Land School Division,Al-Amal Academy,9 Royal Vista Drive NW,T3R0N2,Calgary,AB,(825) 996-5399,,al-amal.academy@plrd.ab.ca,Elementary/Junior High,N,N,Y,Y,N,{79A108A6-ADB6-441C-A5D9-46FE2E61D047},POINT (-114.2075428 51.1507322),3,2,157,9,105
The Canadian Montessori School Ltd.,Canadian Montessori School,1112 70 Avenue S.W.,T2V0P6,Calgary,AB,(403) 862-8551,,admin@calgarymontessorischool.com,Elementary,N,N,Y,N,N,{56CB707E-197B-4203-A1B4-218A7B800AC2},POINT (-114.0882622 50.9907447),8,1,29,5,243
Calgary Academy Society,Calgary Academy Collegiate,1677 - 93rd Street S.W.,T3H0R3,Calgary,AB,(403) 686-6444,,info@calgaryacademy.com,Elementary/Junior High/Senior High,N,N,Y,Y,Y,{952D7BC4-633F-4D80-853B-84A46ACDD54D},POINT (-114.2243772 51.0394313),1,1,48,14,284
The Calgary School Division,Ernest Manning High School,20 Springborough Blvd SW,T3H0N7,Calgary,AB,(403) 249-3131,,ernestmanning@cbe.ab.ca,Senior High,N,N,N,N,Y,{818DA861-7A17-4D0F-85D9-CCBE828B28E2},POINT (-114.1892353 51.035957),1,1,289,14,22
The Calgary School Division,Sir Winston Churchill High School,5220 Northland Dr NW,T2L2J6,Calgary,AB,(403) 289-9241,,sirwinstonchurchill@cbe.ab.ca,Senior High,N,N,N,N,Y,{1F594A19-555D-447B-A49F-66AD9E21E56C},POINT (-114.13999 51.1001127),7,2,50,4,280
The Calgary School Division,Simon Fraser School,5215  33 St NW,T2L1V3,Calgary,AB,(403) 777-7290,,simonfraser@cbe.ab.ca,Elementary/Junior High,N,N,Y,Y,N,{9C446356-E147-4CA6-B01C-96CB526DD907},POINT (-114.1365505 51.1003194),7,2,50,4,280
The Calgary School Division,Dr. George Stanley School,585 Cranston Dr SE,T3M0J4,Calgary,AB,(403) 817-3556,,drgeorgestanley@cbe.ab.ca,Elementary/Junior High,N,N,Y,Y,N,{F722C4E0-067E-48D4-8EBA-28C0BB1DA755},POINT (-113.9782889 50.8827772),4,3,294,8,82
The Calgary School Division,Captain John Palliser School,1484 Northmount Dr NW,T2L0G6,Calgary,AB,(403) 777-6170,,captainjohnpalliser@cbe.ab.ca,Elementary,N,N,Y,N,N,{2977B3F3-372C-4EF5-8D21-C62231BD052E},POINT (-114.1360161 51.0963649),7,2,50,4,280
The Calgary Roman Catholic Separate School Division,Notre Dame High School,11900 Country Village Link NE,T3K6E4,Calgary,AB,(403) 500-2109,,notredame@cssd.ab.ca,Senior High,N,N,N,N,Y,{7648301D-827B-49D3-858A-019A1B2A5C59},POINT (-114.0658203 51.1576509),11,4,264,12,112
The Gilbertine Institute of Catholic Studies,The Gilbertine Academy,1423 8 Ave SE,T2G0N1,Calgary,AB,(866) 361-3650,,admin@gilbertineinstitute.com,Elementary/Junior High/Senior High,N,N,Y,Y,Y,{0E011DAE-2CB5-41EE-85DB-B234A904D9DE},POINT (-114.0292505 51.0400236),10,3,54,11,54
The Calgary School Division,Somerset School,150 Somerset Manor SW,T2Y4S2,Calgary,AB,,,somerset@cbe.ab.ca,Elementary,N,N,Y,N,N,{146691DC-09F2-479D-AF0D-4E87C720E54C},POINT (-114.0848851 50.8974058),5,1,55,6,125
The Calgary Roman Catholic Separate School Division,St. Clare,"12455 Coventry Hills Way, N.E.",T3K5Z4,Calgary,AB,(403) 500-2102,,stclare@cssd.ab.ca,Elementary,N,N,Y,N,N,{985A269C-3158-40C0-9CC0-0F7A4746B166},POINT (-114.0453956 51.1647425),11,4,251,12,8
Hellenic Society of Calgary and District,Greek Community School,1 Tamarac Crescent S.W.,T3C3B7,Calgary,AB,(403) 246-4553,,greekschool@calgaryhellenic.com,Senior High,N,N,N,N,Y,{06FA9B67-4489-4146-8987-C515D28145B8},POINT (-114.1374937 51.0481739),14,1,118,2,259
The Calgary Roman Catholic Separate School Division,All Saints School,729 Legacy Village Rd SE,T2X4K9,Calgary,AB,(403) 500-2133,,allsaints@cssd.ab.ca,Senior High,N,N,N,N,Y,{BCD7BA59-98D7-4FC9-A78F-F45B1817BD7D},POINT (-114.026751 50.8593286),6,3,99,13,159
The Calgary School Division,McKenzie Highlands School,25 McKenzie Towne Dr SE,T2Z4B7,Calgary,AB,(403) 817-3544,,mckenziehighlands@cbe.ab.ca,Elementary/Junior High,N,N,Y,Y,N,{251565A1-3646-4010-A8A5-0EEA80857599},POINT (-113.9700732 50.9109937),4,3,46,8,287
The Calgary School Division,Queen Elizabeth School,402 18 St NW,T2N2G5,Calgary,AB,(403) 777-6789,,queenelizabethelem@cbe.ab.ca,Elementary,N,N,Y,N,N,{D88D0D37-8F0D-4A5E-8E7F-8ACE3253C9EC},POINT (-114.1019611 51.0554584),7,2,40,7,285
The Calgary Roman Catholic Separate School Division,Light of Christ Catholic School,6270 Saddlehorn Dr. N.E.,T3J0L8,Calgary,AB,(403) 500-2121,,lightofchrist@cssd.ab.ca,Elementary/Junior High,N,N,Y,Y,N,{EB1BF7C5-015D-4A2F-B2D9-DBE364F81506},POINT (-113.9412735 51.1295372),11,4,2,1,143
The Calgary School Division,Altadore School,4506  16 St SW,T2T4H9,Calgary,AB,(403) 777-6910,,altadore@cbe.ab.ca,Elementary,N,N,Y,N,N,{44F5A050-221A-47E7-B8C1-DFF9EDB78264},POINT (-114.0997332 51.0140027),8,1,200,2,267
The Calgary School Division,Sibylla Kiddle School,126 Cranford Dr SE,,Calgary,AB,(403) 817-3432,,SibyllaKiddle@cbe.ab.ca,Elementary,N,N,Y,N,N,{CC0B70C2-1DE8-4EDF-B066-FCBDD58F3859},POINT (-113.9708023 50.8778625),4,3,294,8,82
Bearspaw Christian School Society,Bearspaw Christian School & College,15001 - 69 Street NW,T3R1C5,Calgary,AB,(403) 295-2566,,info@bearspawschool.com,Elementary/Junior High/Senior High,N,N,Y,Y,Y,{B0EB7308-2D2A-44A2-A52A-06275B446F00},POINT (-114.1893458 51.186944),3,2,225,10,151
Calgary German Language School Society,Calgary German Language School Society,PO Box 84114    Market Mall RPO,T3B2L9,Calgary,AB,(403) 797-1766,,admin@cglss.com,Junior High/Senior High,N,N,N,Y,Y,{7365E854-35F2-4C32-A438-9C26CF554FFE},POINT (-114.1927889 51.0875591),13,2,149,9,77
The Calgary School Division,Adolescent Mental Health Services,805  37 St NW,T2N2T9,Calgary,AB,(403) 270-1751,,woodshomes@cbe.ab.ca,Elementary/Junior High/Senior High,N,N,Y,Y,Y,{A00D8D51-41EE-4C4C-8527-19C0BB0880DF},POINT (-114.1344107 51.0646688),7,2,154,7,103
The Calgary School Division,Valley Creek School,10951 Hidden Valley Dr NW,T3A6J2,Calgary,AB,(403) 777-7995,,valleycreek@cbe.ab.ca,Elementary/Junior High,N,N,Y,Y,N,{0C33C261-2A57-47FA-B1A9-2C983452E782},POINT (-114.1166729 51.1502338),2,2,25,12,289
The Calgary School Division,Sir John Franklin School,2215  8 Ave NE,T2E0T7,Calgary,AB,(403) 777-7610,,sirjohnfranklin@cbe.ab.ca,Elementary/Junior High,N,N,Y,Y,N,{24F490B2-F44E-47E3-BBA7-8A67B93E354C},POINT (-114.0079231 51.0596772),12,4,140,3,249
The Southern Francophone Education Region,École Sainte-Marguerite-Bourgeoys,4700 Richard Road S.W.,T3E6L1,Calgary,AB,(403) 240-2007,,,Elementary/Junior High/Senior High,N,N,Y,Y,Y,{16E49B93-E2B1-46AD-A7F9-1521126B6DF6},POINT (-114.121583 51.0111375),8,1,42,2,11
The Calgary School Division,Griffith Woods School,7652  26 Ave SW,T3H3X2,Calgary,AB,(403) 817-3572,,griffithwoods@cbe.ab.ca,Elementary/Junior High,N,N,Y,Y,N,{CB220775-8AB9-494F-9721-11FC887DFA4A},POINT (-114.194747 51.0309794),1,1,289,14,22
The Calgary School Division,James Fowler High School,4004  4 St NW,T2K1A1,Calgary,AB,(403) 230-4743,,jamesfowler@cbe.ab.ca,Senior High,N,N,N,N,Y,{914579D2-4447-429D-ADA9-C42E02C58D28},POINT (-114.0705163 51.0865321),2,2,259,4,129
The Calgary School Division,Glenmeadows School,4931 Grove Hill Rd SW,T3E4G4,Calgary,AB,(403) 777-5235,,glenmeadows@cbe.ab.ca,Elementary,N,N,Y,N,N,{BBFCF5CC-2BE6-46EB-B837-55CEB4AF75F2},POINT (-114.1589291 51.0348618),1,1,41,14,286
The Calgary School Division,Jennie Elliott School,3031 Lindsay Dr SW,T3E6A9,Calgary,AB,(403) 777-8350,,jennieelliott@cbe.ab.ca,Elementary,N,N,Y,N,N,{5711AA34-E2A9-4025-B000-D1A3ABF52564},POINT (-114.1272286 50.9961296),8,1,129,5,266
Almadina School Society,"Almadina Language Charter Academy, Ogden Campus",1919 - 76th Avenue SE,T2C0G8,Calgary,AB,(403) 543-5070,,lelchamaa@esl-almadina.com,Elementary/Junior High,N,N,Y,Y,N,{2BC6F0D0-9E6F-4C15-9785-C8B1E5FC98E6},POINT (-114.011988 50.9844553),10,3,28,11,242
The Calgary Roman Catholic Separate School Division,Our Lady of Fatima,6320 Taralea Park NE,T3J5C4,Calgary,AB,(403) 500-2112,,ourladyoffatima@cssd.ab.ca,Elementary,N,N,Y,N,N,{5D11E51E-46AA-4FE6-B3DE-1648014C6711},POINT (-113.9379102 51.1163217),11,4,26,1,290
The Pembina Hills School Division,Vista Virtual School,341 - 58 Avenue SE,,Calgary,AB,,,vvsupport@pembinahills.ca,Elementary/Junior High/Senior High,N,N,Y,Y,Y,{CBF389A5-34B7-459D-9612-4E63EADE65A8},POINT (-114.0576597 51.0004854),10,3,160,11,111
The Calgary School Division,King George School,2108  10 St NW,T2M3M4,Calgary,AB,(403) 777-6210,,KingGeorge@cbe.ab.ca,Elementary,N,N,Y,N,N,{B2A6391E-376D-4E07-A8CF-2D248B31DDC9},POINT (-114.0840555 51.0708971),7,2,17,7,256
The Southern Francophone Education Region,École Notre-Dame-de-la-Paix,809 Willingdon Blvd SE,T2J2B7,Calgary,AB,(403) 271-5544,,ecolendp@francosud.ca,Elementary,N,N,Y,N,N,{6C202699-A3C3-4044-8D6A-B42A193F5B36},POINT (-114.0433726 50.950917),6,3,89,5,212
The Calgary School Division,Clarence Sansom School,5840  24 Ave NE,T1Y6G4,Calgary,AB,(403) 777-7700,,clarencesansom@cbe.ab.ca,Elementary/Junior High,N,N,Y,Y,N,{5092B628-EF8C-4281-BD1B-9E0FD6EDE00B},POINT (-113.9491955 51.0746135),9,4,36,3,294
Aurora Learning Foundation (Calgary),Aurora Learning Calgary,#137 5305 McCall Way NE,T2E7N7,Calgary,AB,(403) 277-9535,,evan.rogers@na.oneschoolglobal.com,Elementary/Junior High/Senior High,N,N,Y,Y,Y,{F061295A-671D-414A-994C-A09CAE57F828},POINT (-114.0030345 51.1013393),11,4,86,1,226
The Calgary Roman Catholic Separate School Division,Holy Cross Elementary Junior High School,3719 - 26 Avenue S.E.,T2B0C6,Calgary,AB,(403) 500-2033,,holycross@cssd.ab.ca,Elementary/Junior High,N,N,Y,Y,N,{F12D2A50-8667-4ADE-8CAC-60CBB7EECAC5},POINT (-113.9795625 51.0300554),10,3,196,11,1
The Calgary School Division,All Boys Program,3519  36 Avenue SW,T3E1C2,Calgary,AB,(403) 777-8400,,,Elementary,N,N,Y,N,N,{9B810006-956D-49FF-A2B9-E1566DABE116},POINT (-114.1362258 51.0211798),8,1,183,2,192
Calgary Girls' School Society,Calgary Girls Charter School,6304 Larkspur Way S.W.,T3E5P7,Calgary,AB,(403) 220-0745,,office@calgarygirlsschool.com,Elementary/Junior High,N,N,Y,Y,N,{5B4C974B-35F8-4AA1-B645-AB66D6AFD03E},POINT (-114.1147642 50.9989926),8,1,122,5,265
The Calgary School Division,Hugh A. Bennett School,40 Saddlelake Way NE,T3J0V1,Calgary,AB,(403) 817-3560,,hughabennett@cbe.ab.ca,Elementary,N,N,Y,N,N,{673E96B3-75EB-4CCC-895F-976C583A1E04},POINT (-113.9285483 51.131684),11,4,2,1,143
The Calgary Roman Catholic Separate School Division,St. Gregory School,5340 - 26 Avenue S.W.,T3E0R6,Calgary,AB,(403) 500-2048,,stgregory@cssd.ab.ca,Junior High,N,N,N,Y,N,{57580DEE-7849-4AF3-A5F3-355BCA43B191},POINT (-114.1604737 51.0311375),1,1,41,14,286
The Calgary School Division,Calgary Home Education,5505 4A St. SW,T2V0Z7,Calgary,AB,(403) 777-8490,,HomeEducation@cbe.ab.ca,Elementary/Junior High/Senior High,N,N,Y,Y,Y,{43CD9CFC-82F3-406B-AFF3-CE5E901E05C3},POINT (-114.0744439 51.004704),8,1,144,5,250
The Calgary School Division,Catherine Nichols Gunn School,6625  4 St NE,T2K5C7,Calgary,AB,(403) 777-6620,,cngunn@cbe.ab.ca,Elementary,N,N,Y,N,N,{63693A03-65D4-4C07-B298-8D8D5F0169AB},POINT (-114.057895 51.1116437),2,4,261,4,158
The Calgary School Division,Battalion Park School,369 Sienna Park Dr SW,T3H4S2,Calgary,AB,(403) 777-7187,,battalionpark@cbe.ab.ca,Elementary,N,N,Y,N,N,{7FA8A475-6A55-4CB1-B4ED-841C10DE4A4B},POINT (-114.181901 51.0235669),1,1,278,14,65
,BOW VALLEY COLLEGE,,T2G4V1,Calgary,AB,(403) 410-1400,,info@bowvalleycollege.ca,,Y,Y,,,,{CBC7B6F4-C850-4ECB-99F2-6D5AC490831C},POINT (-114.0560011 51.0467662),7,3,262,7,160
The Calgary School Division,Sundance School,200 Sunmills Dr SE,T2X2N9,Calgary,AB,(403) 777-8690,,sundance@cbe.ab.ca,Elementary,N,N,Y,N,N,{400A88FB-A79A-4558-B914-5C3C560F840E},POINT (-114.0468131 50.9006606),6,3,52,13,128
The Calgary Roman Catholic Separate School Division,Divine Mercy School,228 Mahogany Blvd. SE,T3M1M5,Calgary,AB,(403) 500-2132,,divinemercy@cssd.ab.ca,Elementary,N,N,Y,N,N,{934EFAA8-BC9C-4211-974C-6A8167177095},POINT (-113.9239578 50.9015566),4,3,116,8,258
The Calgary School Division,Dr. Gladys McKelvie Egbert School,6033 Madigan Dr NE,T2A5G9,Calgary,AB,(403) 777-7780,,drgladysmegbert@cbe.ab.ca,Elementary/Junior High,N,N,Y,Y,N,{5E37C696-F14C-4137-8A4B-CDE7253EA363},POINT (-113.9415291 51.0588922),12,4,33,3,246
The Calgary School Division,Nickle School,2500 Lake Bonavista Dr SE,T2J2Y6,Calgary,AB,(403) 777-7720,,nickle@cbe.ab.ca,Junior High,N,N,N,Y,N,{DC3D34F9-D044-4BD2-B8A1-BE5DB13DD3E6},POINT (-114.0614348 50.9407367),6,3,267,13,123
The Calgary Roman Catholic Separate School Division,St. Mark Elementary School,4589 Marbank Drive N.E.,T2A3V8,Calgary,AB,(403) 500-2068,,stmark@cssd.ab.ca,Elementary,N,N,Y,N,N,{AA7B9A40-97FA-49A5-BA95-BC989A813265},POINT (-113.9693478 51.0630324),12,4,77,3,80
The Calgary School Division,Thorncliffe School,5646 Thornton Rd NW,T2K3B9,Calgary,AB,(403) 777-6670,,thorncliffe@cbe.ab.ca,Elementary,N,N,Y,N,N,{7947DE45-90A2-46E4-90CC-F97F0C425BD1},POINT (-114.0670966 51.1023231),2,2,192,4,164
The Calgary Roman Catholic Separate School Division,Apostles of Jesus,15 Skyview Ranch Street NE,T3N1H6,Calgary,AB,(403) 500-2129,,apostlesofjesus@cssd.ab.ca,Elementary/Junior High,N,N,Y,Y,N,{2E544E4F-B55C-42BE-B6A6-C38D89CBE3D4},POINT (-113.9565131 51.1584173),11,4,12,1,132
The Calgary Roman Catholic Separate School Division,St. Joseph Elementary Junior High School,2512 - 5 Street N.W.,T2M3C7,Calgary,AB,(403) 500-2009,,stjoseph@cssd.ab.ca,Elementary/Junior High,N,N,Y,Y,N,{667CBCD6-8167-4DC7-A2FB-27385977306F},POINT (-114.0733169 51.0747866),7,2,17,7,256
The Calgary Roman Catholic Separate School Division,St. Jude School,730 Woodbine Boulevard S.W.,T2W4W4,Calgary,AB,(403) 500-2084,,stjude@cssd.ab.ca,Elementary,N,N,Y,N,N,{4593BAAC-8B40-4798-AEAA-48F4EED145EC},POINT (-114.1334374 50.9429522),5,1,43,6,288
The Calgary School Division,Sir John A. Macdonald School,6600  4 St NW,T2K1C2,Calgary,AB,(403) 777-7670,,sirjohnamacdonald@cbe.ab.ca,Junior High,N,N,N,Y,N,{B9E7B46C-F82E-4116-BCFB-99A854EA85E2},POINT (-114.0700457 51.111477),2,2,261,4,158
Centro Linguistico E Culturale Italiano Calgary,Italian School of Calgary,416-1 Avenue N.E.,T2E0B4,Calgary,AB,(403) 264-6349,,clcic@shaw.ca,Junior High/Senior High,N,N,N,Y,Y,{A03BBF47-B672-4594-AC92-C8A22AEE09F4},POINT (-114.0531472 51.0537463),7,4,266,7,120
The Southern Francophone Education Region,École La Mosaïque,199 Martindale Blvd NE,T3J3G4,Calgary,AB,(403) 277-2344,,,Elementary,N,N,Y,N,N,{B7491B2A-F56E-486A-B114-87F963E9EF47},POINT (-113.9575118 51.1137667),9,4,180,1,184
The Calgary School Division,Patrick Airlie School,1520  39 St SE,T2A1H9,Calgary,AB,(403) 777-8220,,patrickairlie@cbe.ab.ca,Elementary,N,N,Y,N,N,{14BAB740-7E17-45BF-933C-CFF133AB6A66},POINT (-113.9767839 51.0399114),12,3,85,11,211
The Calgary School Division,Vincent Massey School,939  45 St SW,T3C2B9,Calgary,AB,(403) 777-7870,,vincentmassey@cbe.ab.ca,Junior High,N,N,N,Y,N,{21379F42-7AF7-407C-9788-F792C8E333DE},POINT (-114.1534231 51.0440373),14,1,234,14,180
Foundations for the Future Charter Academy Charter School Society,Northeast Elementary Campus,1140 Mayland Drive NE,T2E6C8,Calgary,AB,,,susan.snowden@ffca-calgary.com,Elementary,N,N,Y,N,N,{C3E70D4C-0B87-4280-B068-CEE8D94B2094},POINT (-114.0112907 51.0641943),12,4,140,3,249
The Calgary School Division,Colonel Sanders School,226 Northmount Dr NW,T2K3G5,Calgary,AB,(403) 777-6034,,ColonelSanders@cbe.ab.ca,Elementary,N,N,Y,N,N,{705912E8-A5F2-4974-B3AE-CC32932FBF53},POINT (-114.0747704 51.0998137),2,2,192,4,164
The Calgary School Division,Grant MacEwan School,180 Falshire Dr NE,T3J3A5,Calgary,AB,(403) 777-6930,,grantmacewan@cbe.ab.ca,Elementary,N,N,Y,N,N,{54420C30-1C8A-403B-8FD1-4B331D9B9BBF},POINT (-113.9429503 51.1064276),9,4,56,1,278
The Calgary School Division,Westbrook Outreach,3610 - 9th Street SE,T2G3C5,Calgary,AB,(403) 777-8020,,discoveringchoices@cbe.ab.ca,Senior High,N,N,N,N,Y,{A836C6E9-F44C-4F12-A99B-948359B604E1},POINT (-114.0396247 51.0219975),10,3,75,11,221
The Calgary School Division,Glenbrook School,4725 33 Ave. S.W.,T3E3V1,Calgary,AB,(403) 777-8320,,glenbrook@cbe.ab.ca,Elementary,N,N,Y,N,N,{F946A4AC-224F-400E-8D2E-7188025212D4},POINT (-114.1549975 51.0235114),1,1,298,14,33
The Calgary School Division,Abbeydale School,320 Abergale Dr NE,T2A6W2,Calgary,AB,(403) 777-6970,,Abbeydale@cbe.ab.ca,Elementary,N,N,Y,N,N,{D6B016C1-91D5-4E70-888E-CAC29EDF5A43},POINT (-113.9298486 51.0566252),12,4,94,3,168
Renfrew Educational Services Society,Renfrew Educational Services - Child Development Centre,2050 - 21 Street N.E.,T3B2X9,Calgary,AB,(403) 291-5038,,renfrew@renfreweducation.org,Unknown,N,N,N,N,N,{B810BE7E-5840-432D-89E6-5B3F83A14453},POINT (-114.1439291 51.0747652),13,2,155,7,104
The Calgary Roman Catholic Separate School Division,St. Helena School,320 - 64 Avenue N.W.,T2K0L8,Calgary,AB,(403) 500-2049,,sthelena@cssd.ab.ca,Junior High,N,N,N,Y,N,{1D82EF1E-785C-4908-B674-D936A70FFEFC},POINT (-114.0677824 51.1115337),2,2,261,4,158
The Calgary School Division,Mayland Heights School,2324 Maunsell Drive NE,T2E6A2,Calgary,AB,(403) 777-6290,,maylandheights@cbe.ab.ca,Elementary,N,N,Y,N,N,{22D38D69-F8AA-451C-B135-2A698CC79A7B},POINT (-114.0072928 51.0589518),12,4,140,3,249
The Calgary Roman Catholic Separate School Division,Our Lady of the Evergreens Catholic School,322 Everridge Dr. S.W.,T2Y0L5,Calgary,AB,(403) 500-2120,,ourladyevergreens@cssd.ab.ca,Elementary,N,N,Y,N,N,{B4C497E8-D43E-4CA3-909F-1F3C01C87C54},POINT (-114.1221942 50.9143738),5,1,39,6,257
The Calgary School Division,Dr. J. K. Mulloy School,7440 10 St NW,T2K1H6,Calgary,AB,(403) 777-6640,,,Elementary,N,N,Y,N,N,{A9917A87-F538-454A-9A7E-063C23035742},POINT (-114.079969 51.1192251),2,2,261,4,158
The Calgary Roman Catholic Separate School Division,St. John Paul II School,119 Castleridge Drive N.E.,T3J1P6,Calgary,AB,(403) 500-2085,,stjohnpaul2@cssd.ab.ca,Elementary,N,N,Y,N,N,{2B26D2EF-216A-48FD-8A6B-F9C5019E1F5D},POINT (-113.9561994 51.1077102),9,4,119,1,262
The Calgary School Division,Riverside School,107 6A St NE,T2E0B7,Calgary,AB,(403) 777-7350,,Riverside@cbe.ab.ca,Elementary/Junior High,N,N,Y,Y,N,{42C06A03-595B-4F94-80BE-0C88DD7AB6C6},POINT (-114.0477096 51.0528507),10,4,137,11,240
The Calgary Roman Catholic Separate School Division,St. Sylvester School,7318 Silver Springs Blvd NW.,T3B4N1,Calgary,AB,(403) 500-2063,,stsylvester@cssd.ab.ca,Elementary,N,N,Y,N,N,{A6C52156-35CC-4609-8196-E0256CB4DA1B},POINT (-114.1943526 51.1092551),13,2,147,9,12
Yufeng Chinese School Centre,Yufeng Chinese School,169 Citadel Ridge Close NW,T3G4V5,Calgary,AB,(403) 681-8617,,yufengchineseschool@telus.net,Elementary/Junior High/Senior High,N,N,Y,Y,Y,{2C37B62D-C761-4818-A743-C299CDC7E090},POINT (-114.1834692 51.1460943),3,2,247,10,177
Al-Zahra Islamic Research Foundation,Al-Qaim International School,"510 77 Ave SE, Calgary, AB T2H",T2H1C3,Calgary,AB,(403) 851-7557,,info@alqaimschool.ca,Elementary/Junior High,N,N,Y,Y,N,{75ABD91F-0623-434C-9B09-1C283BEC8145},POINT (-114.0514595 50.9851221),10,3,76,11,181
The Calgary School Division,Ramsay School,2223 Spiller Rd SE,T2G4G9,Calgary,AB,(403) 777-6790,,ramsay@cbe.ab.ca,Elementary,N,N,Y,N,N,{A86FE90F-EBB8-4E31-BEAC-2BA198D476FF},POINT (-114.0457894 51.0331886),10,3,132,11,193
The Calgary School Division,Stanley Jones School,950 6 St NE,T2E8M3,Calgary,AB,(403) 777-6800,,Stanleyjones@cbe.ab.ca,Elementary/Junior High,N,N,Y,Y,N,{F3AE3110-334B-4DC1-AB7E-04437B38A4AA},POINT (-114.0477073 51.0599054),10,4,171,11,78
Lycee Louis Pasteur Society,Lycee Louis Pasteur,4099 Garrison Blvd. S.W.,T2T6G2,Calgary,AB,(403) 243-5420,,lycee.ab.ed@lycee.ca,Elementary/Junior High/Senior High,N,N,Y,Y,Y,{4C702F14-93A5-4CFB-87A0-1AFA48F6C5BE},POINT (-114.1144436 51.0178041),8,1,201,2,267
The Calgary School Division,David Thompson School,9320 Arbour Cres SE,T2J0X8,Calgary,AB,(403) 777-7470,,davidthompson@cbe.ab.ca,Elementary/Junior High,N,N,Y,Y,N,{4AA1F151-351B-407D-A03B-5AB7132C26E6},POINT (-114.0546514 50.9694036),10,3,174,5,81
The Calgary School Division,John Ware School,10020  19 St SW,T2V1R2,Calgary,AB,(403) 777-7930,,johnware@cbe.ab.ca,Junior High,N,N,N,Y,N,{C877DB51-20A8-4747-97FE-2D114D0CD229},POINT (-114.1053048 50.9636548),8,1,127,5,271
The Calgary School Division,Sunalta School,536 Sonora Ave SW,T3C2J9,Calgary,AB,(403) 777-8590,,sunalta@cbe.ab.ca,Elementary,N,N,Y,N,N,{B4432A9D-0619-480B-B6B7-854ED41667C1},POINT (-114.1108977 51.0413434),14,1,173,2,170
The Calgary School Division,Westgate School,150 Westminster Dr SW,T3C2T3,Calgary,AB,(403) 777-8420,,westgate@cbe.ab.ca,Elementary,N,N,Y,N,N,{1993182E-0E40-48DF-9747-FCA74C1B499E},POINT (-114.1591998 51.0444881),14,1,234,14,180
The Southern Francophone Education Region,École du Nouveau-Monde,220 Scenic Acres Drive NW,T3L0E7,Calgary,AB,(403) 910-3851,,nouveaumonde@francosud.ca,Elementary,N,N,Y,N,N,{DA54E828-76C4-45E3-8AC5-D131D70C8000},POINT (-114.215124 51.111596),13,2,148,9,48
The Calgary Roman Catholic Separate School Division,Holy Family School,904 - 32 St. S.E.,T2A0Z1,Calgary,AB,(403) 500-2054,,holy.family@cssd.ab.ca,Elementary,N,N,Y,N,N,{0C23C315-04E0-4C99-89EA-488A5A7A9B27},POINT (-113.9878638 51.0455362),12,3,121,11,264
The Palliser School Division,"Calgary Islamic School, Omar Bin Al-Khattab Campus",Omar Bin Al-Khattab Campus,T2A5K4,Calgary,AB,(584) 353-8900,,,Elementary/Junior High,N,N,Y,Y,N,{BBAF8A15-11C7-4A4A-82B7-26D632A06F4F},POINT (-113.9938098 51.050745),12,3,166,3,118
The Calgary Roman Catholic Separate School Division,St. Albert the Great,225 Prestwick Ave SE,T2Z3X3,Calgary,AB,(403) 500-2114,,stalbert@cssd.ab.ca,Elementary/Junior High,N,N,Y,Y,N,{B87150A8-8EE7-457C-A8FF-7DA9DC609E2B},POINT (-113.9600758 50.9215097),4,3,46,8,287
Delta West Academy Society,Delta West Academy,414 - 11A Street N.E.,T2E4P3,Calgary,AB,(403) 290-0767,,info@deltawestacademy.ca,Elementary/Junior High/Senior High,N,N,Y,Y,Y,{69A2454C-7170-4A5B-8B86-AE0E64E4450E},POINT (-114.0346249 51.0551077),10,4,137,11,240
The Calgary Roman Catholic Separate School Division,Monsignor J. S. Smith School,2919 Douglasdale Boulevard S.E,T2Z2H9,Calgary,AB,(403) 500-2069,,msgrsmith@cssd.ab.ca,Elementary/Junior High,N,N,Y,Y,N,{6A4CDFA3-FD8C-4939-8D6E-29E5EBD6229B},POINT (-113.9898663 50.9412085),4,3,268,13,124
The Calgary Roman Catholic Separate School Division,St. Damien School,3619 - 28 Street S.E.,T2B2J1,Calgary,AB,(403) 500-2073,,stdamien@cssd.ab.ca,Elementary,N,N,Y,N,N,{A2DE2618-E84B-43F4-B6DF-36D2DAABEF11},POINT (-113.9922281 51.0219202),10,3,196,11,1
West Island College Society of Alberta,West Island College,7410 Blackfoot Trail S.E.,T2H1M5,Calgary,AB,(403) 255-5300,,office@mywic.ca,Junior High/Senior High,N,N,N,Y,Y,{55CEB5DF-0C3A-4DB9-90D2-F3EAC0B64DF0},POINT (-114.0521604 50.9871044),10,3,76,11,181
The Calgary School Division,Chaparral School,480 Chaparral Dr SE,T2X3S2,Calgary,AB,(403) 777-6424,,chaparral@cbe.ab.ca,Elementary,N,N,Y,N,N,{58783C21-7B62-41DB-8657-1E96492848E0},POINT (-114.0449682 50.882964),6,3,130,13,218
The Calgary School Division,West Ridge School,8903 Wentworth Ave SW,T3H5N9,Calgary,AB,(403) 817-3552,,westridge@cbe.ab.ca,Elementary/Junior High,N,N,Y,Y,N,{1F682E52-0837-4B8E-A6A3-6550D20C4B1D},POINT (-114.2142424 51.0584892),1,1,114,14,194
"Maria Montessori Education Centre of Calgary, Ltd.",Maria Montessori School,"Chief Crowfoot School Building 
2634 12 Ave NW",T2N1K6,Calgary,AB,(403) 668-8538,,info@mmec.ca,Elementary/Junior High,N,N,Y,Y,N,{B0FCA31D-99F4-4779-95AA-DA2C67D0DDD4},POINT (-114.1235826 51.0627098),7,2,154,7,103
The Palliser School Division,Master's Academy,4414 Crowchild Trail S.W.,T2T5J4,Calgary,AB,(403) 242-7034,,,Elementary,N,N,Y,N,N,{4D8A7FE0-2724-4089-BEB2-D3C3D828A2A1},POINT (-114.1165458 51.0153024),8,1,201,2,267
The Calgary School Division,New Brighton School,30 New Brighton Dr SE,T2Z4B2,Calgary,AB,(403) 817-3516,,newbrighton@cbe.ab.ca,Elementary,N,N,Y,N,N,{BC1630AC-E7DE-4B50-BED8-97CA26383C4C},POINT (-113.9537078 50.9194772),4,3,139,8,247
The Calgary School Division,Cecil Swanson School,4820 Rundlewood Dr NE,T1Y5V9,Calgary,AB,(403) 777-6690,,cecilswanson@cbe.ab.ca,Elementary,N,N,Y,N,N,{DC96F617-E7C8-4695-8357-2065ED2A9764},POINT (-113.9675431 51.0741822),9,4,34,3,291
The Calgary School Division,H. D. Cartwright School,5500 Dalhart Rd NW,T3A1V6,Calgary,AB,(403) 777-7420,,hdcartwright@cbe.ab.ca,Junior High,N,N,N,Y,N,{D3D1AB7F-3E65-44A5-8DB1-F3510F53E967},POINT (-114.1613274 51.1126485),7,2,38,4,260
The Calgary Roman Catholic Separate School Division,St. Catherine Elementary School,11 Canata Close S.W.,T2W1P6,Calgary,AB,(403) 500-2061,,stcatherine@cssd.ab.ca,Elementary,N,N,Y,N,N,{9F03944E-2771-4601-9C23-CC1C49090A96},POINT (-114.0864888 50.9438465),5,1,283,6,24
Mountain View Academy Society,Mountain View Academy,3915 34 Street NE,T1Y6Z8,Calgary,AB,(403) 217-4346,,office@mountainviewacademy.ca,Elementary/Junior High/Senior High,N,N,Y,Y,Y,{1BD4A818-6751-4259-9476-4E404B69A19B},POINT (-113.9861039 51.0884378),9,4,71,3,76
The Calgary School Division,Nellie McClung School,2315 Palliser Dr SW,T2V3S4,Calgary,AB,(403) 777-8620,,nelliemcclung@cbe.ab.ca,Elementary,N,N,Y,N,N,{C51CD1C5-9790-4453-84FD-617FF2CA51D2},POINT (-114.1130138 50.9684953),8,1,66,5,229
The Calgary School Division,Royal Oak School,9100 Royal Birch Blvd NW,T3G5R8,Calgary,AB,(403) 777-6279,,royaloak@cbe.ab.ca,Elementary,N,N,Y,N,N,{4AE8513C-A50D-49AF-95DE-DFDE06252E12},POINT (-114.2220693 51.1455728),3,2,252,9,13
The Calgary Roman Catholic Separate School Division,Mother Mary Greene School,115 Edenwold Drive N.W.,T3A3S8,Calgary,AB,(403) 500-2095,,mothermarygreene@cssd.ab.ca,Elementary,N,N,Y,N,N,{C10E8E4A-ED61-4000-A661-C37B97D0C28E},POINT (-114.1393092 51.1242735),2,2,272,4,59
The Calgary School Division,Niitsitapi Learning Centre,3743 Dover Ridge Dr SW,T2B2E1,Calgary,AB,(403) 817-3404,,niitsitapilearningcentre@cbe.ab.ca,Elementary,N,N,Y,N,N,{FEB51BB6-1E48-4956-A330-7F01A2EB0A9F},POINT (-113.9793371 51.0205887),10,3,196,11,1
The Calgary School Division,William D. Pratt School,9850 Royal Oak Dr NW,T3G0A4,Calgary,AB,(403) 817-3520,,williamdpratt@cbe.ab.ca,Elementary/Junior High,N,N,Y,Y,N,{A63A5263-9C60-4041-A47F-7AEF222F3D8F},POINT (-114.2240926 51.1493607),3,2,252,9,13
The Calgary School Division,Ernest Morrow School,1212  47 St SE,T2A1R3,Calgary,AB,(403) 777-7800,,ernestmorrow@cbe.ab.ca,Elementary/Junior High,N,N,Y,Y,N,{A8B6F920-1561-4091-B5E1-5AC54497FFAA},POINT (-113.9648387 51.0433846),12,3,85,11,211
The Calgary School Division,Henry Wise Wood High School,910  75 Ave SW,T2V0S6,Calgary,AB,(403) 253-2261,,henrywisewood@cbe.ab.ca,Senior High,N,N,N,N,Y,{1C0C2600-965E-4AB8-85B9-432F928F2DEE},POINT (-114.0846844 50.9863406),8,1,29,5,243
The Calgary Roman Catholic Separate School Division,St. Kateri Tekakwitha School,1005 Abbotsford Drive N.E.,T2A7N5,Calgary,AB,(403) 500-2090,,stkateri@cssd.ab.ca,Elementary,N,N,Y,N,N,{7CC2E724-E9DF-4D6F-A0A7-413936E83FD1},POINT (-113.9276608 51.0618538),12,4,94,3,168
The Calgary School Division,Lakeshore School,133 Auburn Springs Boulevard S,T3M1P6,Calgary,AB,(403) 817-3440,,Lakeshore@cbe.ab.ca,Elementary/Junior High,N,N,Y,Y,N,{FF7AA6A8-536A-4087-9CD7-2BA38035D050},POINT (-113.953794 50.8959118),4,3,95,8,217
The Calgary Roman Catholic Separate School Division,St. Augustine Elementary Junior High School,7112 - 7 Street S.W.,T2V1E9,Calgary,AB,(403) 500-2022,,staugustine@cssd.ab.ca,Elementary/Junior High,N,N,Y,Y,N,{237B1BCF-DF19-4411-8162-8432AE8201BB},POINT (-114.0807771 50.9911137),8,1,120,5,263
The Calgary School Division,Beddington Heights School,95 Bermuda Rd NW,T3K2J6,Calgary,AB,(403) 777-6610,,beddingtonheights@cbe.ab.ca,Elementary,N,N,Y,N,N,{64EE8558-91AE-4E01-921D-5352F7B9E8C1},POINT (-114.0793929 51.1317456),2,2,273,4,60
The Calgary Roman Catholic Separate School Division,St. Basil Elementary/Junior High School,919 Tuscany Drive NW,T3L2T5,Calgary,AB,(403) 500-2108,,stbasil@cssd.ab.ca,Elementary/Junior High,N,N,Y,Y,N,{5ECEFAAD-0A5C-4564-A2ED-0B840FF76239},POINT (-114.2503171 51.1194184),13,2,158,9,107
River Valley School Society,River Valley School,3127 Bowwood Drive N.W.,T3B2E7,Calgary,AB,(403) 246-2275,,info@rivervalleyschool.ca,Elementary,N,N,Y,N,N,{3CD606A2-E3D5-4F99-B733-34FDC70C5E35},POINT (-114.1743441 51.0794694),13,2,149,9,77
Eastside City Church and Missionary Society,Eastside Christian Academy,1320 Abbeydale Drive SE,T2A7L8,Calgary,AB,(403) 569-1003,,admin@eastsidechristianacademy.ca,Elementary/Junior High/Senior High,N,N,Y,Y,Y,{4E6F0CE1-F4F0-4C68-8BC3-223AA322ACDE},POINT (-113.93022 51.0519523),12,3,94,3,168
The Calgary School Division,Prairie Sky School,201 Skyview Ranch Road NE,T3N2E7,Calgary,AB,(403) 817-3452,,prairiesky@cbe.ab.ca,Elementary/Junior High,N,N,Y,Y,N,{0602D00E-54E6-4821-A6D7-11A45CD028EF},POINT (-113.9568896 51.1621326),11,4,12,1,132
The Calgary School Division,Wildwood School,120  45 St SW,T3C2B3,Calgary,AB,(403) 777-8430,,wildwood@cbe.ab.ca,Elementary,N,N,Y,N,N,{34888DDF-C4BD-4E62-98FD-1BA467B06DD5},POINT (-114.1521166 51.0515895),14,1,170,2,73
The Calgary School Division,Senator Patrick Burns School,2155 Chilcotin Rd NW,T2L0X2,Calgary,AB,(403) 777-7400,,senatorpatrickburns@cbe.ab.ca,Elementary/Junior High,N,N,Y,Y,N,{4EC36C0A-7227-4EFB-938F-68C2901470BA},POINT (-114.1155367 51.0882111),7,2,125,4,269
Alberta Conference of 7th Day Adventist Church,Chinook Winds Adventist Academy,10101 - 2nd Avenue S.W.,T3B5T2,Calgary,AB,(403) 286-5686,,reception@cwaa.net,Elementary/Junior High/Senior High,N,N,Y,Y,Y,{D41755F7-811C-4B15-8309-6D19E4C5D12B},POINT (-114.2332662 51.0792342),13,1,291,14,14
The Calgary Roman Catholic Separate School Division,Father Doucet School,65 Shannon Drive S.W.,T2Y2T5,Calgary,AB,(403) 500-2089,,fatherdoucet@cssd.ab.ca,Elementary,N,N,Y,N,N,{5192B150-CFCA-407E-AA6B-6030ED445C68},POINT (-114.0851689 50.9093442),5,1,115,6,281
Horizon Academy Institute,Horizon Heritage Arabic School,199 Queen Charlotte Way SE,T3C3P1,Calgary,AB,(403) 826-4655,,,Unknown,N,N,N,N,N,{E906D785-FA13-4AD6-8B05-56220B7FBA09},POINT (-114.1398093 51.0396757),14,1,281,2,36
The Calgary School Division,Maple Ridge School,10203 Maplemont Rd SE,T2J1W3,Calgary,AB,(403) 777-6280,,mapleridge@cbe.ab.ca,Elementary,N,N,Y,N,N,{7711E847-1D90-4E65-85CC-9FAD84B3B1BB},POINT (-114.0419588 50.9618905),6,3,93,5,216
The Calgary School Division,Louise Dean School,120  23 St NW,T2N2P1,Calgary,AB,(403) 777-7630,,louisedean@cbe.ab.ca,Senior High,N,N,N,N,Y,{7EB580B4-E611-4194-8C89-65C394630ABE},POINT (-114.1146825 51.0531507),7,2,280,7,35
The Calgary School Division,Glamorgan School,50 Grafton Dr SW,T3E4W3,Calgary,AB,(403) 777-8310,,glamorgan@cbe.ab.ca,Elementary/Junior High,N,N,Y,Y,N,{24AD47E4-3329-4E01-A138-77243FA00B44},POINT (-114.1453983 51.0153799),1,1,142,14,274
The Calgary School Division,CLS James Fowler Writing Centre,4004 4 St NE,T2K1A1,Calgary,AB,(403) 230-4743,,chinooklearning@cbe.ab.ca,Unknown,N,N,N,N,N,{EC4BAE21-CC23-4C97-8FA6-266E44FAC7D2},POINT (-114.0705163 51.0865321),2,2,259,4,129
The Calgary Roman Catholic Separate School Division,Don Bosco School,13615 Deer Ridge Drive S.E.,T2J6S7,Calgary,AB,(403) 500-2057,,donbosco@cssd.ab.ca,Elementary/Junior High,N,N,Y,Y,N,{7F07D0F5-D68F-4B68-B999-A708D7CF80A8},POINT (-114.0182527 50.9313007),6,3,151,13,255
The Canadian Montessori School Ltd.,Canadian Montessori School North,1112 - 70 Avenue S.W.,T2V0P6,Calgary,AB,(403) 252-3281,,admin@calgarymontessorischool.com,Unknown,N,N,N,N,N,{8D88AA74-E8F7-4329-970A-48A4BF083578},POINT (-114.0882622 50.9907447),8,1,29,5,243
The Calgary Roman Catholic Separate School Division,St. James Elementary Junior High School,2227 - 58 Avenue S.W.,T3E1N6,Calgary,AB,(403) 500-2035,,stjames@cssd.ab.ca,Elementary/Junior High,N,N,Y,Y,N,{7AD6B12F-CEDF-4062-B4AD-40143B34117F},POINT (-114.113664 51.0011413),8,1,122,5,265
The Calgary Roman Catholic Separate School Division,Our Lady of Peace Elementary Junior High School,14826 Millrise Hill S.W.,T2Y2B4,Calgary,AB,(403) 500-2097,,olp@cssd.ab.ca,Elementary/Junior High,N,N,Y,Y,N,{33F7A2EB-9A94-4188-A094-63E0B05F5CA0},POINT (-114.0877102 50.9184851),5,1,156,6,74
The Calgary School Division,Sir Wilfrid Laurier School,819  32 St SE,T2A0Y9,Calgary,AB,(403) 777-7370,,ampetroni@cbe.ab.ca,Elementary/Junior High,N,N,Y,Y,N,{5C5450F0-C4D0-4E29-9F52-C858F19B5C26},POINT (-113.9893061 51.0457348),12,3,121,11,264
The Calgary School Division,Rosemont School,19 Rosevale Dr NW,T2K1N6,Calgary,AB,(403) 777-6230,,rosemont@cbe.ab.ca,Elementary,N,N,Y,N,N,{DA0221D6-7AE2-4B92-9253-CD55A6DF38E5},POINT (-114.0923733 51.0778712),7,2,92,4,215
The Calgary School Division,Thomas B. Riley School,3915  69 St NW,T3B2J9,Calgary,AB,(403) 777-7260,,thomasbriley@cbe.ab.ca,Junior High,N,N,N,Y,N,{6BC8F985-241D-4ED9-A10F-C8E4B1E29B53},POINT (-114.1890516 51.0875292),13,2,149,9,77
The Calgary School Division,Le Roi Daniels School,47 Fyffe Rd SE,T2H1B9,Calgary,AB,(403) 777-6420,,leroidaniels@cbe.ab.ca,Elementary,N,N,Y,N,N,{FEC8A933-9491-424F-9B1F-7F955D9DD3CE},POINT (-114.0579556 50.9838584),10,3,284,11,25
Calgary Arts Academy Society,Calgary Arts Academy,640 14th Avenue S.E.,T2G1E8,Calgary,AB,(403) 532-3020,,cjordan@caaschool.com,Elementary/Junior High/Senior High,N,N,Y,Y,Y,{E96B5386-A4C5-4B64-959C-8F899862622A},POINT (-114.0492422 51.039402),14,3,260,5,130
The Calgary School Division,CBe-learn,2336 53 Avenue SW,T3E1L2,Calgary,AB,(403) 777-7971,,cbelearn@cbe.ab.ca,Elementary/Junior High/Senior High,N,N,Y,Y,Y,{0563E319-C533-46B7-8C9A-D60852A7DF5D},POINT (-114.1139277 51.0065169),8,1,122,5,265
Arise Calgary Church,Arise Christian Academy,"155 Falconridge Crescent NE 
Calgary, AB T3J 1Z9",T3J1Z9,Calgary,AB,(825) 712-9554,,arisechristianacademy33@gmail.com,Elementary/Junior High/Senior High,N,N,Y,Y,Y,{D5CE5DF5-14B9-4FA5-8E5B-E8B94A5A4553},POINT (-113.9532286 51.0966232),9,4,56,1,278
The Calgary School Division,Riverbend School,65 Rivervalley Dr SE,T2C3Z7,Calgary,AB,(403) 777-6510,,riverbend@cbe.ab.ca,Elementary,N,N,Y,N,N,{873288F9-9D94-44E0-B1F6-410CE4BBB3AB},POINT (-114.0185021 50.9721562),10,3,19,8,234
The Calgary School Division,Bowness High School,4627  77 St NW,T3B2N6,Calgary,AB,(403) 286-5092,,bowness@cbe.ab.ca,Senior High,N,N,N,N,Y,{F26EA92A-86E9-4427-B49D-36BAFBAA7216},POINT (-114.200251 51.0931753),13,2,149,9,77
The Calgary School Division,Chris Akkerman School,5004 Marbank Dr NE,T2A3J6,Calgary,AB,(403) 777-8120,,chrisakkerman@cbe.ab.ca,Elementary,N,N,Y,N,N,{701191F5-60F4-439C-B453-19B8CD682862},POINT (-113.963011 51.0637573),12,4,77,3,80
The Calgary School Division,Chinook Park School,1312  75 Ave SW,T2V0S6,Calgary,AB,(403) 777-8480,,chinookpark@cbe.ab.ca,Elementary,N,N,Y,N,N,{5DB468BC-4AA7-476B-9D36-725265C0753C},POINT (-114.0893703 50.9864478),8,1,29,5,243
The Calgary School Division,Alex Ferguson School,1704  26 St SW,T3C1K5,Calgary,AB,(403) 777-8270,,alexanderferguson@cbe.ab.ca,Elementary,N,N,Y,N,N,{83759795-6B77-4A08-BF11-D53A102A52FB},POINT (-114.1229836 51.0393638),14,1,198,2,204
The Palliser School Division,National Sport School,151 Canada Olympic Rd SW,T3B6B7,Calgary,AB,(403) 777-7329,,robert.jewan@pallisersd.ab.ca,Junior High/Senior High,N,N,N,Y,Y,{2AEA1201-7949-4002-B086-6A271A669270},POINT (-114.2210265 51.0847948),13,1,4,14,40
The Prairie Land School Division,Al-Amal Online Academy,9 Royal Vista Drive NW,T3R0N2,Calgary,AB,(825) 996-5399,,al-amal.onlineacademy@plrd.ab.ca,Senior High,N,N,N,N,Y,{4CF341C8-7AFF-48FD-A72B-C074A10AA3E3},POINT (-114.2075428 51.1507322),3,2,157,9,105
The Calgary School Division,Keeler School,4807 Forego Ave SE,T2A2C4,Calgary,AB,(403) 777-8180,,keeler@cbe.ab.ca,Elementary,N,N,Y,N,N,{DE830397-5E0B-49C6-BDFE-1F1384B50446},POINT (-113.9648131 51.0492568),12,3,194,11,166
The Calgary Roman Catholic Separate School Division,Bishop McNally High School,5700 Falconridge Boulevard N.E,T3J3N4,Calgary,AB,(403) 500-2091,,bishopmcnally@cssd.ab.ca,Senior High,N,N,N,N,Y,{0B8BA26C-70F4-4DAF-A80B-3760E1FB9EF5},POINT (-113.9536063 51.1032212),9,4,56,1,278
The Calgary School Division,Western Canada High School,641  17 Ave SW,T2S0B5,Calgary,AB,(403) 228-5363,,westerncanada@cbe.ab.ca,Senior High,N,N,N,N,Y,{20C6F3CD-9ED5-490D-9AAA-3945BD7E8854},POINT (-114.0775476 51.0369948),14,1,18,2,231
Calgary Academy Society,Calgary Academy,1677 93 rd Street S.W.,T3H0R3,Calgary,AB,(403) 686-6444,,info@calgaryacademy.com,Elementary/Junior High/Senior High,N,N,Y,Y,Y,{415BBB9C-293E-4369-889C-398FBE76B478},POINT (-114.2243772 51.0394313),1,1,48,14,284
The Calgary School Division,Mount View School,2004  4 St NE,T2E3T8,Calgary,AB,(403) 777-6300,,mountview@cbe.ab.ca,Elementary,N,N,Y,N,N,{CD8B0BB2-5B98-4065-A39D-406C993BE0F2},POINT (-114.0520619 51.0696254),10,4,88,7,202
The Calgary Roman Catholic Separate School Division,St. Cecilia (Bilingual) Elementary School,610 Agate Crescent S.E.,T2J0Z3,Calgary,AB,(403) 500-2040,,stcecilia@cssd.ab.ca,Elementary,N,N,Y,N,N,{C38F16CA-ED72-4BBD-9CA7-7F22CD43C80D},POINT (-114.0504111 50.9652961),10,3,174,5,81
The Calgary School Division,West Dover School,3113  30 Avenue SE,T2B0G9,Calgary,AB,(403) 777-8260,,westdover@cbe.ab.ca,Elementary,N,N,Y,N,N,{B3696B39-127D-49DE-B2B7-1CDAF7B6EF04},POINT (-113.990648 51.0263292),10,3,196,11,1
The Calgary School Division,Willow Park School,343 Willow Park Dr SE,T2J0K7,Calgary,AB,(403) 777-6900,,willowpark@cbe.ab.ca,Elementary/Junior High,N,N,Y,Y,N,{35516EE7-3B90-4D54-9817-89B83B91A5E7},POINT (-114.0606873 50.9577962),6,3,89,5,212
The Calgary School Division,Peter Lougheed School,148 Saddletree Close NE,T3J5J1,Calgary,AB,(403) 817-3508,,peterlougheed@cbe.ab.ca,Elementary/Junior High,N,N,Y,Y,N,{46D68BB6-675C-4CBC-BFA4-7977C228370E},POINT (-113.9556832 51.1306696),11,4,2,1,143
The Calgary School Division,Capitol Hill School,2210  18 St NW,T2M3T4,Calgary,AB,(403) 777-6160,,capitolhill@cbe.ab.ca,Elementary,N,N,Y,N,N,{49E7091B-17D6-4854-A953-D5F5CADBFAA9},POINT (-114.1039175 51.0720766),7,2,63,7,51
,AMBROSE UNIVERSITY,,T3H0L5,Calgary,AB,(403) 410-2000,,,,Y,Y,,,,{BB639F8D-4EFE-41EE-9BDE-716390288050},POINT (-114.1930498 51.033707),1,1,289,14,22
The Calgary School Division,Rundle School,4120 Rundlehorn Dr NE,T1Y4W9,Calgary,AB,(403) 777-6760,,rundle@cbe.ab.ca,Elementary,N,N,Y,N,N,{8316213A-5262-49F2-996C-6E86CC83481A},POINT (-113.9737217 51.0711823),9,4,34,3,291
The Calgary Roman Catholic Separate School Division,St. Francis High School,877 Northmount Drive N.W.,,Calgary,AB,(403) 500-2026,,st.francis@cssd.ab.ca,Senior High,N,N,N,N,Y,{142B9E6B-9BFC-4ED7-9296-1010B90B42DE},POINT (-114.1024075 51.0845066),7,2,214,4,108
The Calgary Roman Catholic Separate School Division,St. Matthew School,416 - 83 Avenue S.E.,T2H1N3,Calgary,AB,(403) 500-2030,,stmatthew@cssd.ab.ca,Elementary/Junior High,N,N,Y,Y,N,{95C40BC3-4DEE-45FE-9AF5-683AD54C0A19},POINT (-114.0585101 50.9786824),10,3,174,5,81
The Calgary School Division,Sunnyside School,211 7 St NW,T2N1S2,Calgary,AB,(403) 777-6390,,sunnyside@cbe.ab.ca,Elementary,N,N,Y,N,N,{2A87DFF4-22F8-49F8-80EA-AAF4D2C1304D},POINT (-114.0795441 51.0565624),7,2,62,7,19
Foundations for the Future Charter Academy Charter School Society,Southeast Elementary Campus,9711 Academy Drive SE,T2J1A9,Calgary,AB,(430) 258-2728,,,Elementary,N,N,Y,N,N,{516F3F67-327C-406F-8AC1-46158AFE4A6E},POINT (-114.0454063 50.9672419),10,3,174,5,81
The Calgary School Division,Killarney School,3008  33 Street SW,T3E2T9,Calgary,AB,(403) 777-8360,,killarney@cbe.ab.ca,Elementary,N,N,Y,N,N,{EA027B08-0235-4AA5-B27B-A1ACC11092A2},POINT (-114.1347293 51.0281934),14,1,182,2,38
Renfrew Educational Services Society,Renfrew Educational Services-Bowness Centre,2050 - 21 Street N.E.,T3B2B2,Calgary,AB,(403) 291-5038,,renfrew@renfreweducation.org,Unknown,N,N,N,N,N,{9518CB5F-0513-4DD6-A7C0-3253E93B66EF},POINT (-114.2119244 51.0963293),13,2,149,9,77
GCA Educational Society,Glenmore Christian Academy Junior High,16520-24 Street SW,T2Y4W2,Calgary,AB,(403) 254-9051,,admin@gcaschool.com,Elementary/Junior High,N,N,Y,Y,N,{E87449EE-DD2F-4374-B97C-ECC324021A92},POINT (-114.115239 50.9039788),5,1,138,6,283
North Point School for Boys,North Point School,2445 - 23 Ave SW,T2T0W3,Calgary,AB,(403) 744-5214,,,Elementary/Junior High/Senior High,N,N,Y,Y,Y,{924E099B-DDFD-4FD9-8C61-CF72B83F331D},POINT (-114.1174839 51.0325564),14,1,181,2,282
The Calgary Roman Catholic Separate School Division,Ascension of Our Lord,509 Harvest Hills Drive N.E.,T3K4G9,Calgary,AB,(403) 500-2075,,,Elementary/Junior High,N,N,Y,Y,N,{F8433675-AB5E-4173-9FF1-CB804F60A01A},POINT (-114.0596888 51.1469569),11,4,27,12,241
The Calgary School Division,Braeside School,1747  107 Ave SW,T2W0C3,Calgary,AB,(403) 777-8470,,braeside@cbe.ab.ca,Elementary,N,N,Y,N,N,{9459796C-5AB0-4730-B9CD-BF207A96312F},POINT (-114.1016943 50.9566736),8,1,23,5,238
The Calgary Roman Catholic Separate School Division,St. John Henry Newman School,16201 McKenzie Lake  Boulevard S.E.,T2Z2G7,Calgary,AB,(403) 500-2092,,stjohnhenrynewman@cssd.ab.ca,Elementary/Junior High,N,N,Y,Y,N,{67E286D6-0C98-43D1-B059-6EEBFF15B3EA},POINT (-113.9888584 50.9073393),4,3,296,13,89
The Calgary School Division,Fairview School,7840 Fairmount Dr SE,T2H0Y1,Calgary,AB,(403) 777-7900,,fairview@cbe.ab.ca,Elementary/Junior High,N,N,Y,Y,N,{8E1CCCCE-62AF-4FEA-84FF-C2A9A9AA5552},POINT (-114.05945 50.9839856),10,3,284,11,25
The Calgary School Division,Valley View School,4105  26 Ave SE,T2B0C6,Calgary,AB,(403) 777-8250,,valleyview@cbe.ab.ca,Elementary,N,N,Y,N,N,{02E0C5EB-7891-4C90-850A-28944440E7ED},POINT (-113.9752778 51.0300546),10,3,196,11,1
The Calgary School Division,Bowcroft School,3940  73 St NW,T3B2L9,Calgary,AB,(403) 777-6020,,bowcroft@cbe.ab.ca,Elementary,N,N,Y,N,N,{78007FB4-AFE3-44CD-A618-7AA1E0B8C926},POINT (-114.1927889 51.0875591),13,2,149,9,77
The Calgary School Division,Christine Meikle School,3525 50 St NW,T3A2Y5,Calgary,AB,(403) 817-3524,,christinemeikle@cbe.ab.ca,Elementary/Junior High/Senior High,N,N,Y,Y,Y,{1DBBAE57-1F5A-4119-98B8-30BCBF2EE0C9},POINT (-114.1610657 51.0845447),13,2,269,9,127
The Calgary Roman Catholic Separate School Division,St. Elizabeth Seton,10845 Hidden Valley Drive,T3A6K3,Calgary,AB,(403) 500-2105,,stelizabethseton@cssd.ab.ca,Elementary/Junior High,N,N,Y,Y,N,{E68D99EB-C93F-4AA6-B00B-9EA2043A7A14},POINT (-114.1104364 51.1511018),2,2,25,12,289
The Calgary School Division,Dr. Gordon Townsend School,28 Oki Drive NW,T3B6A8,Calgary,AB,(403) 955-7004,,drgordontownsend@cbe.ab.ca,Elementary/Junior High/Senior High,N,N,Y,Y,Y,{F57AE512-B500-43C8-AD0B-A8C54F1F4A4A},POINT (-114.1483456 51.0744945),13,2,155,7,104
The Calgary Roman Catholic Separate School Division,Prince of Peace School,43 Auburn Meadows Blvd SE,T3M2C9,Calgary,AB,(403) 500-2125,,princeofpeace@cssd.ab.ca,Elementary/Junior High,N,N,Y,Y,N,{ECC232FA-9880-4922-9903-361B8583A2CE},POINT (-113.9498421 50.8932639),4,3,95,8,217
The Pembina Hills School Division,Vista Virtual School South,341 -  58 Avenue SE,,Calgary,AB,(855) 974-5333,,steven.kaplan@pembinahills.ca,Unknown,N,N,N,N,N,{2FC4855C-E37A-4A93-8245-AFF342ECE2B4},POINT (-114.0576597 51.0004854),10,3,160,11,111
The Calgary School Division,Northern Lights School,711 Coventry Dr NE,,Calgary,AB,(403) 817-3444,,northernlights@cbe.ab.ca,Elementary,N,N,Y,N,N,{9AEB66D1-D285-4E81-BF5F-E833EA700081},POINT (-114.0469265 51.1576163),11,4,251,12,8
The Calgary School Division,Eugene Coste School,10 Hillgrove Cres SW,T2V3K7,Calgary,AB,(403) 777-8511,,eugenecoste@cbe.ab.ca,Elementary,N,N,Y,N,N,{A8F842EC-14F0-4F94-AFEB-095E05EF1D31},POINT (-114.0869778 50.9678896),8,1,195,5,167
Philippine Cultural Center Foundation (Calgary),Filipino Language and Cultural School of Calgary,"Bay 204 & 206 
4656 Westwinds Dr NE",T3J3Z5,Calgary,AB,,,abdacanay@shaw.ca,Unknown,N,N,N,N,N,{175716C4-60D4-4C5E-B9AB-6A160481DED2},POINT (-113.9678004 51.100647),9,4,80,1,225
Calgary Arts Academy Society,Calgary Arts Academy Rosscarrock Middle School,1406 40th Street SW,T3C1W7,Calgary,AB,(403) 255-1984,,cjordan@caaschool.com,Unknown,N,N,N,N,N,{8F688AB5-A454-4095-993C-2F17B1B636BB},POINT (-114.1447822 51.0412164),14,1,281,2,36
The Calgary School Division,Harold Panabaker School,23 Sackville Dr SW,T2W0W3,Calgary,AB,(403) 777-7890,,haroldpanabaker@cbe.ab.ca,Elementary/Junior High,N,N,Y,Y,N,{C76BC6C7-DD90-4331-96B3-3190389C0751},POINT (-114.0866482 50.9576396),8,1,7,5,91
Rundle College Society,Rundle College Elementary School,7615 - 17 Ave SW,T3H3W5,Calgary,AB,(403) 282-8411,,contactus@rundle.ab.ca,Elementary,N,N,Y,N,N,{29EBE814-BE6F-4431-A4B8-A6E9802C7A93},POINT (-114.1973197 51.0367131),1,1,289,14,22
The Calgary School Division,Tuscany School,990 Tuscany Dr NW,T3L2T4,Calgary,AB,(403) 777-8060,,tuscany@cbe.ab.ca,Elementary,N,N,Y,N,N,{43EE4735-72D4-4ACE-BE82-B2410574D075},POINT (-114.2454306 51.1177871),13,2,158,9,107
The Calgary School Division,McKenzie Lake School,16210 McKenzie Lake Way SE,T2Z1L7,Calgary,AB,(403) 777-6500,,mckenzielake@cbe.ab.ca,Elementary,N,N,Y,N,N,{B2B1E4F5-D223-43E0-9952-A8561E8D1F1B},POINT (-113.9849974 50.9062179),4,3,296,13,89
The Calgary Roman Catholic Separate School Division,St. Isabella School,855 Copperfield Blvd SE,T2Z4W8,Calgary,AB,(403) 500-2123,,stisabella@cssd.ab.ca,Elementary/Junior High,N,N,Y,Y,N,{73813A2D-C680-4D7A-871F-CB5AC56F7E6A},POINT (-113.935989 50.9105832),4,3,96,8,230
The Calgary School Division,Mahogany School,165 Mahogany Blvd. SE,,Calgary,AB,(403) 817-3448,,Mahogany@cbe.ab.ca,Elementary,N,N,Y,N,N,{D709797A-CAD7-4478-AE23-072617C2BF31},POINT (-113.926494 50.9025509),4,3,116,8,258
The Calgary School Division,Rideau Park School,829 Rideau Rd SW,T2S0S2,Calgary,AB,(403) 777-7480,,rideaupark@cbe.ab.ca,Elementary/Junior High,N,N,Y,Y,N,{4CC0CB2F-FE35-4A84-A957-B4303BAECD85},POINT (-114.0755637 51.0252766),10,1,277,5,64
The Calgary Roman Catholic Separate School Division,St. Gemma Outreach High School,38 - 3250 Sunridge Way NE,T1Y7K4,Calgary,AB,(403) 500-2140,,stgemma@cssd.ab.ca,Senior High,N,N,N,N,Y,{A85284A2-169A-4F7F-8DAC-5E2A1B113124},POINT (-113.9901364 51.0696387),9,4,83,3,223
The Calgary School Division,Huntington Hills School,820  64 Ave NW,T2K0M5,Calgary,AB,(403) 777-6650,,huntingtonhills@cbe.ab.ca,Elementary,N,N,Y,N,N,{1910A422-A141-44FF-86D8-D0A9E316282D},POINT (-114.0774569 51.112209),2,2,261,4,158
The Calgary School Division,Centennial High School,55 Sun Valley Blvd SE,T2X3W7,Calgary,AB,(403) 256-8140,,centennialhigh@cbe.ab.ca,Senior High,N,N,N,N,Y,{1BD9EE27-970D-424E-A970-AA1DA600304F},POINT (-114.0533548 50.9061097),6,3,52,13,128
Calgary Waldorf School Society,Calgary Waldorf School,515 Cougar Ridge Drive S.W.,T3H5G9,Calgary,AB,(403) 287-1868,,principal@calgarywaldorf.org,Elementary/Junior High,N,N,Y,Y,N,{B11DA2FF-E745-4410-9389-D0E7741CCB83},POINT (-114.2183262 51.0723494),1,1,128,14,272
STEM Innovation Academy Society,STEM Innovation Academy Middle School,1204 96 Ave SW,T2V0Y1,Calgary,AB,(403) 259-4211,,info@stemia.ca,Junior High,N,N,N,Y,N,{7BDE7D52-61C0-406C-A854-F5C4B05D2151},POINT (-114.0884791 50.96887),8,1,195,5,167
The Calgary School Division,G. W. Skene School,6226 Penbrooke Dr SE,T2A6M7,Calgary,AB,(403) 777-8150,,gwskene@cbe.ab.ca,Elementary,N,N,Y,N,N,{3B171DA6-2DDA-4DD8-A90F-3E879FCABA98},POINT (-113.9452208 51.0456249),12,3,30,11,244
The Calgary School Division,Banff Trail School,3232 Cochrane Rd NW,T2M4J3,Calgary,AB,(403) 777-6120,,banfftrail@cbe.ab.ca,Elementary,N,N,Y,N,N,{91FC67F5-193B-4CBE-85EF-84B5DB691655},POINT (-114.1167588 51.0816395),7,2,125,4,269
The Calgary School Division,Woodbine School,27 Woodfield Way SW,T2W5E1,Calgary,AB,(403) 777-8630,,woodbine@cbe.ab.ca,Elementary,N,N,Y,N,N,{B7478DB7-5E8C-4A2E-921B-B5314FFDA388},POINT (-114.1289426 50.9365329),5,1,43,6,288
The Calgary School Division,Ron Southern School,483 Silverado Blvd SW,T2X2E2,Calgary,AB,(403) 817-3576,,ronsouthern@cbe.ab.ca,Elementary,N,N,Y,N,N,{5865F4DE-9161-4F59-8F40-4FA0208D7AF2},POINT (-114.0856882 50.8809318),6,1,134,6,252
The Calgary Roman Catholic Separate School Division,Father Scollen School,6839 Temple Drive N.E.,T1Y5N4,Calgary,AB,(403) 500-2088,,fatherscollen@cssd.ab.ca,Elementary/Junior High,N,N,Y,Y,N,{8ED6D93D-868A-40FA-8C1A-AC8B9FCFCEA5},POINT (-113.9419616 51.0930203),9,4,22,3,237
The Calgary School Division,Chinook Learning Services,2336 53 Ave SW,T2M0T2,Calgary,AB,(403) 777-7200,,chinooklearning@cbe.ab.ca,Senior High,N,N,N,N,Y,{90658939-B5BB-4E32-B46E-6680ECE07D65},POINT (-114.0654256 51.0685816),10,2,69,7,70
The Calgary Roman Catholic Separate School Division,Father James Whelihan,70 Sunmills Drive S.E.,T2X2R5,Calgary,AB,(403) 500-2087,,fatherwhelihan@cssd.ab.ca,Elementary/Junior High,N,N,Y,Y,N,{DE6E0E32-0E4A-45B4-9E53-4DE981B50E1D},POINT (-114.0470194 50.9045243),6,3,52,13,128
Congregation House of Jacob-Mikveh Israel,Akiva Academy,140 Haddon Road S.W.,T2V2Y3,Calgary,AB,(403) 258-1312,,office@akiva.ca,Elementary/Junior High,N,N,Y,Y,N,{34467320-E3CC-417C-94D1-329EC1A3302B},POINT (-114.0778236 50.9732774),8,1,195,5,167
The Calgary School Division,AADAC Youth Services,1005 - 17 Street N.W.,T2N2E5,Calgary,AB,(403) 297-4664,,AADAC@cbe.ab.ca,Unknown,N,N,N,N,N,{31AAF592-EF8C-425B-90F6-1D122D185882},POINT (-114.1016819 51.0612611),7,2,152,7,182
The Calgary School Division,Midsun School,660 Sunmills Dr SE,T2X3R5,Calgary,AB,(403) 777-6430,,midsun@cbe.ab.ca,Elementary/Junior High,N,N,Y,Y,N,{5AFABF3D-2DC9-4FCE-8EF4-50948637F5A8},POINT (-114.0309154 50.9018495),6,3,52,13,128
Bearspaw Christian School Society,BCS@Home,15001 - 69 Street NW,T3R1C5,Calgary,AB,(403) 295-2566,,info@bearspawschool.com,Elementary/Junior High/Senior High,N,N,Y,Y,Y,{944D1B13-096C-4B95-95A8-0EC97B9B47A4},POINT (-114.1893458 51.186944),3,2,225,10,151
The Calgary Roman Catholic Separate School Division,St. Vincent De Paul Elementary Junior High School,4525 - 49 Street N.W.,T3A0K4,Calgary,AB,(403) 500-2051,,stvincent@cssd.ab.ca,Elementary/Junior High,N,N,Y,Y,N,{2B1F7040-D9D1-4144-8B37-3AAAEF1A7432},POINT (-114.1597997 51.0931446),13,2,269,9,127
Calgary Quest Children's Society,Calgary Quest School,"3405 Spruce Drive S.W. 
c/o Spruce Cliff Elementary",T3C0A5,Calgary,AB,(403) 253-0003,,info@calgaryquestschool.com,Elementary/Junior High/Senior High,N,N,Y,Y,Y,{564B0398-B1BB-4589-AD06-B271A19D295C},POINT (-114.1366387 51.0497215),14,1,118,2,259
The Calgary School Division,Copperfield School,54 Copperstone Rd SE,T2Z0G7,Calgary,AB,(403) 817-3512,,copperfield@cbe.ab.ca,Elementary,N,N,Y,N,N,{C2271D11-666C-463A-AB3C-983B0C2727A6},POINT (-113.9288059 50.914832),4,3,96,8,230
The Calgary School Division,Fish Creek School,1039 Suncastle Dr SE,T2X2Z1,Calgary,AB,(403) 777-6400,,fishcreek@cbe.ab.ca,Elementary,N,N,Y,N,N,{BDB489CC-DB77-4803-BA9B-A4D9777B2C1F},POINT (-114.0328114 50.9015051),6,3,52,13,128
Foundations for the Future Charter Academy Charter School Society,North Middle School Campus,211 McKnight Blvd. NE,T2E5S7,Calgary,AB,,,kimberly.johnson@ffca-calgary.com,Elementary/Junior High,N,N,Y,Y,N,{AD9E2179-5F75-49E7-A7D0-7BD580D1632D},POINT (-114.060601 51.0954531),2,4,241,4,101
The Alberta Ballet Company,Alberta Ballet School,"West Annex, 2nd Floor  906-12 Avenue S.W.",T2R1K7,Calgary,AB,(403) 245-2274,,schoolreception@albertaballet.com,Junior High/Senior High,N,N,N,Y,Y,{CFC681F6-9350-4F77-91D9-9E86F0A0B5E7},POINT (-114.082058 51.042251),14,1,260,2,130
The Calgary School Division,Crossing Park School,500 Martindale Blvd NE,T3J4W8,Calgary,AB,(403) 777-7195,,crossingpark@cbe.ab.ca,Elementary/Junior High,N,N,Y,Y,N,{496D2CA3-1481-4DA9-8254-60F5FA182FFA},POINT (-113.9663237 51.1156922),9,4,180,1,184
The Calgary Roman Catholic Separate School Division,St. Maria Goretti Elementary School,375 Hawkstone Drive N.W.,T3G3T7,Calgary,AB,(403) 500-2099,,stmariagoretti@cssd.ab.ca,Elementary,N,N,Y,N,N,{860D22B9-5BC8-4673-8023-A6E81A897C1F},POINT (-114.1777507 51.1345242),3,2,248,10,176
The Calgary School Division,Arbour Lake Middle School,27 Arbour Crest Dr NW,T3G4H3,Calgary,AB,(403) 777-7310,,ArbourLake@cbe.ab.ca,Elementary/Junior High,N,N,Y,Y,N,{9D9879AE-FE19-420B-8DEA-BFDD31C7E18B},POINT (-114.2091772 51.134651),3,2,244,10,173
The Calgary Roman Catholic Separate School Division,St. Teresa of Calcutta School,St. Teresa School 121 Midlake,T2X1T7,Calgary,AB,(403) 500-2078,,stteresa@cssd.ab.ca,Elementary,N,N,Y,N,N,{12B39986-F96C-4871-B14B-3861F3D11E49},POINT (-114.0520832 50.9143778),6,3,263,13,161
The Calgary School Division,Janet Johnstone School,224 Shawnessy Dr SW,T2Y1M1,Calgary,AB,(403) 777-8670,,janetjohnstone@cbe.ab.ca,Elementary,N,N,Y,N,N,{A5D7EAC1-942E-4FB7-AC7E-9267576586E2},POINT (-114.080086 50.9093693),5,1,115,6,281
New Heights School and Learning Services Society,New Heights School and Learning Services,2521 Dieppe Ave SW,T3E7M1,Calgary,AB,(403) 240-1312,,info@newheightscalgary.com,Elementary/Junior High/Senior High,N,N,Y,Y,Y,{D547C12D-69A9-4F05-BA52-BC2F5170315E},POINT (-114.1221707 51.0184736),8,1,199,2,50
The Calgary School Division,Manmeet Singh Bhullar School,1027 Martindale Blvd NE,T3J4Z1,Calgary,AB,(403) 817-3568,,manmeetsinghbhullar@cbe.ab.ca,Elementary,N,N,Y,N,N,{BF8FD442-18D7-42FD-82B3-1EAEED6E5C7D},POINT (-113.9594225 51.1233068),9,4,180,1,184
Asasa Learning,Asasa Academy,599 Northmount Drive N.W.,T2K3J6,Calgary,AB,(403) 285-5677,,,Elementary,N,N,Y,N,N,{E375F1E6-7B10-4150-A008-BAA495D9B115},POINT (-114.0880221 51.0871733),7,2,276,4,66
The Calgary School Division,Penbrooke Meadows School,5645 Pensacola Cres SE,T2A2G4,Calgary,AB,(403) 777-8230,,penbrookemeadows@cbe.ab.ca,Elementary,N,N,Y,N,N,{B7DA1C9B-05D0-4D1A-8EE8-DB91079B4A71},POINT (-113.9521888 51.0417953),12,3,30,11,244
Rundle College Society,Rundle Studio,7375 - 17 Avenue SW,T3H3W5,Calgary,AB,(403) 291-3866,,contactus@rundle.ab.ca,Junior High/Senior High,N,N,N,Y,Y,{B9DB6BE0-C87A-42C4-A9E8-FA20CD234991},POINT (-114.1939221 51.0368941),1,1,289,14,22
The Calgary School Division,Bayside School,15 Auburn Crest Park SE,T3M0Z4,Calgary,AB,(403) 817-3436,,baysideschool@cbe.ab.ca,Elementary,N,N,Y,N,N,{C3786788-2042-4AA0-9D24-232779489BA9},POINT (-113.9475262 50.8882439),4,3,95,8,217
The Calgary Roman Catholic Separate School Division,St. Thomas More School,6110 Temple Drive N.E.,T1Y5V4,Calgary,AB,(403) 500-2081,,stthomasmore@cssd.ab.ca,Elementary,N,N,Y,N,N,{833D193B-871E-43FE-8A11-BFE964902688},POINT (-113.9455354 51.085415),9,4,22,3,237
The Palliser School Division,Heritage Christian Academy,2003 McKnight Boulevard N.E.,T2E6L2,Calgary,AB,(403) 219-3201,,heritage_info@pallisersd.ab.ca,Elementary/Junior High/Senior High,N,N,Y,Y,Y,{2CE61349-FD5F-41D7-8DAA-42FB815C6179},POINT (-114.0101364 51.0921352),9,4,72,3,67
The Calgary School Division,CLS Forest Lawn Writing Centre,1304 44 St SE,T2A1M8,Calgary,AB,(403) 272-6665,,chinooklearning@cbe.ab.ca,Unknown,N,N,N,N,N,{D6FC2138-D854-44DF-85C8-B6103C11C1BA},POINT (-113.9689496 51.0424031),12,3,85,11,211
The Calgary School Division,R. T. Alderman School,725 Mapleton Dr SE,T2J1S1,Calgary,AB,(403) 777-7520,,rtalderman@cbe.ab.ca,Elementary/Junior High,N,N,Y,Y,N,{922968FF-ADDB-4BE8-A283-4A6DF83291A4},POINT (-114.0445879 50.9611594),6,3,93,5,216
The Canadian Montessori School Ltd.,Canadian Montessori School West,1112 - 70 Avenue S.W.,T2V0P6,Calgary,AB,(403) 252-3281,,admin@calgarymontessorischool.com,Unknown,N,N,N,N,N,{BF3FD96E-037E-42B0-BA5D-E0B2CF0274ED},POINT (-114.0882622 50.9907447),8,1,29,5,243
The Calgary School Division,Queen Elizabeth High School,512  18 St NW,T2N2G5,Calgary,AB,(403) 777-6380,,queenelizabethjrsr@cbe.ab.ca,Junior High/Senior High,N,N,N,Y,Y,{1F103391-F135-4B7B-8CE3-4C82D779D527},POINT (-114.1019163 51.0562024),7,2,40,7,285
The Calgary School Division,Colonel Walker School,1921  9 Ave SE,T2G0V3,Calgary,AB,(403) 777-6780,,colonelwalker@cbe.ab.ca,Elementary,N,N,Y,N,N,{B16245BF-1B7B-4180-9B61-BB96E3FDA545},POINT (-114.0190347 51.034362),10,3,54,11,54
The Calgary Roman Catholic Separate School Division,Father Lacombe School,3615 Radcliffe Drive S.E.,T2A6B4,Calgary,AB,(403) 500-2066,,fatherlacombe@cssd.ab.ca,Senior High,N,N,N,N,Y,{AA9751CD-5CC3-4F9C-8BD9-3A2CEF7C9ACB},POINT (-113.9832447 51.0473809),12,3,121,11,264
The Calgary School Division,Prince of Wales School,253 Parkland Way SE,T2J3Y9,Calgary,AB,(403) 777-6880,,princeofwales@cbe.ab.ca,Elementary,N,N,Y,N,N,{D3F85515-9EDF-4B40-880A-90DA4ECBFDA1},POINT (-114.033308 50.9247642),6,3,117,13,261
School of East Indian Languages and Performing Arts of Calgary,School of East Indian Languages and Performing Arts,376 Silverado Boulevard SW,T2X0N9,Calgary,AB,(403) 280-5110,,office@silpa.ca,Unknown,N,N,N,N,N,{35F6841C-5EF6-411A-B674-E893D5A2A6BF},POINT (-114.0875454 50.8837415),6,1,134,6,252
The Calgary School Division,Discovering Choices,#206 315 10 Ave SE,T2G0W2,Calgary,AB,(403) 268-3265,,discoveringchoices@cbe.ab.ca,Senior High,N,N,N,N,Y,{901B8706-E515-4A67-BBD9-2B726009FD7C},POINT (-114.0566933 51.0428705),14,3,260,5,130
Muslim Association of Canada,MAC Islamic School - Calgary Chapter,64 12 street NE,T3G1B5,Calgary,AB,(403) 454-7879,,office@macislamicschool.ca,Elementary/Junior High,N,N,Y,Y,N,{ECCE1386-6222-439E-BEB6-3F4016D773A4},POINT (-114.1799322 51.1148369),3,2,245,10,174
The Calgary School Division,Colonel Irvine School,412 Northmount Dr NW,T2K3H6,Calgary,AB,(403) 777-7280,,colonelirvine@cbe.ab.ca,Elementary/Junior High,N,N,Y,Y,N,{564C0864-C8A4-4A77-87FC-301B2E9F3E3A},POINT (-114.0799321 51.0924368),7,2,37,4,295
The Calgary School Division,Twelve Mile Coulee School,65 Tuscany Hills Rd NW,T3L0C7,Calgary,AB,(403) 817-3390,,TwelveMileCoulee@cbe.ab.ca,Elementary/Junior High,N,N,Y,Y,N,{1E1930D2-F3FA-4D60-B1F6-F15CCE7CAF12},POINT (-114.2434801 51.1228362),13,2,158,9,107
The Calgary Roman Catholic Separate School Division,St. Rita School,7811 Ranchview Drive N.W.,T3G2B3,Calgary,AB,(403) 500-2083,,strita@cssd.ab.ca,Elementary,N,N,Y,N,N,{81403AE6-40DD-4CA0-A3B4-307B7820D960},POINT (-114.1817531 51.1198662),3,2,245,10,174
The Calgary Roman Catholic Separate School Division,St. Monica School,235 - 18 Avenue S.W.,T2S0C2,Calgary,AB,(403) 500-2001,,Stmonica@cssd.ab.ca,Elementary/Junior High,N,N,Y,Y,N,{BEEE429B-2833-4A2A-AD5D-1A06216CB069},POINT (-114.0678144 51.0367698),14,1,297,5,90
The Calgary School Division,Chief Justice Milvain School,3428  42 St NE,T1Y6A3,Calgary,AB,(403) 777-6700,,chiefjusticemilvain@cbe.ab.ca,Elementary,N,N,Y,N,N,{9D17B187-0B56-4E5C-B4BC-FB9E6DB7F352},POINT (-113.97219 51.083686),9,4,145,3,251
Alberta Chung Wah School Society,Alberta Chung Wah School,"#270, 328 Centre Street S.E.",T2G4X6,Calgary,AB,(403) 271-8033,,office@albertachungwahschool.ca,Unknown,N,N,N,N,N,{346979AE-ABAF-4F77-AE8C-357340CE8A61},POINT (-114.0617383 51.049565),7,3,21,7,236
The Calgary School Division,W. O. Mitchell School,511 Silvergrove Dr NW,T3B4R9,Calgary,AB,(403) 777-6100,,womitchell@cbe.ab.ca,Elementary,N,N,Y,N,N,{6F4248AD-91DD-4C72-AE1B-9D7E85AE5A1D},POINT (-114.1942875 51.1136908),13,2,147,9,12
The Calgary Roman Catholic Separate School Division,St. Wilfrid Elementary School,4225 - 44 Avenue N.E.,T1Y4Y1,Calgary,AB,(403) 500-2077,,stwilfrid@cssd.ab.ca,Elementary,N,N,Y,N,N,{ADD1FA6F-73CB-41C8-82C9-4297410F848F},POINT (-113.9690047 51.0919216),9,4,145,3,251
The Calgary School Division,Wilma Hansen School,963 Queensland Dr SE,,Calgary,AB,(403) 777-7430,,wilmahansen@cbe.ab.ca,Elementary/Junior High,N,N,Y,Y,N,{1FE25AA7-752C-4F7F-8242-C6A3FA7F5B22},POINT (-114.0188704 50.9322873),6,3,215,13,141
The Calgary School Division,Robert Thirsk High School,8777 Nose Hill Dr NW,T3G5T3,Calgary,AB,,,RobertThirskHigh@cbe.ab.ca,Senior High,N,N,N,N,Y,{4623CF1B-A2A5-4577-A3C5-630621267378},POINT (-114.1947783 51.1308413),3,2,244,10,173
The Calgary Roman Catholic Separate School Division,Holy Name (Bilingual) School,3011 - 35 Street S.W.,T3E2Y7,Calgary,AB,(403) 500-2006,,holyname@cssd.ab.ca,Elementary,N,N,Y,N,N,{6F390003-2D6C-4A0A-86C7-4C2141F8BFDB},POINT (-114.1390036 51.0282719),14,1,182,2,38
Foundations for the Future Charter Academy Charter School Society,Northwest Elementary Campus,719-44 Ave NW,T2K0J5,Calgary,AB,(403) 282-5202,,,Elementary,N,N,Y,N,N,{3996CCBC-0A67-407A-B772-86352FFACDCE},POINT (-114.0780594 51.0931727),7,2,37,4,295
The Palliser School Division,Calgary Christian High School,5029 - 26 Avenue S.W.,T3E0R5,Calgary,AB,(403) 242-2896,,ccssoffice@pallisersd.ab.ca,Junior High/Senior High,N,N,N,Y,Y,{E4AE00FC-5496-4CDC-9872-98300AC23208},POINT (-114.1589411 51.0297634),1,1,298,14,33
Foundations for the Future Charter Academy Charter School Society,Southwest Elementary Campus,898 Sylvester Cres. SW,T2W0R7,Calgary,AB,(403) 259-3527,,pam.brah@ffca-calgary.com,Elementary,N,N,Y,N,N,{C60CE8F6-9C24-4C92-A6DD-89AA48150F2E},POINT (-114.0825466 50.9589807),8,1,7,5,91
The Calgary School Division,Vista Heights School,2411 Vermillion St NE,T2E6J3,Calgary,AB,(403) 777-6000,,vistaheights@cbe.ab.ca,Elementary,N,N,Y,N,N,{3C895B0A-A659-47EB-8058-B783DAB1D0C3},POINT (-114.0170736 51.0738872),9,4,141,3,273
The Calgary School Division,Elboya School,4804  6 St SW,T2S2N3,Calgary,AB,(403) 777-7760,,elboya@cbe.ab.ca,Elementary/Junior High,N,N,Y,Y,N,{2256DEB1-E504-4868-8AAB-10884E731A63},POINT (-114.0782137 51.0108834),8,1,143,5,275
"Maria Montessori Education Centre of Calgary, Ltd.",Maria Montessori School - cSPACE King Edward Location,cSPACE Projects  1721-29 Avenue SW,T2T6T7,Calgary,AB,(403) 668-8538,,info@mmec.ca,Unknown,N,N,N,N,N,{E0BC39FD-9B6D-4525-B36F-700F80702078},POINT (-114.1008834 51.0272699),14,1,207,2,63
The Calgary Roman Catholic Separate School Division,Monsignor A. J. Hetherington Elementary School,4 Coral Springs Boulevard N.E,T3J3J3,Calgary,AB,(403) 500-2036,,msgrhetherington@cssd.ab.ca,Elementary,N,N,Y,N,N,{8A658437-ABDD-41EF-9FC9-7DB272D13F91},POINT (-113.9340476 51.0995523),9,4,293,3,87
The Calgary School Division,Alternative High School,5003  20 St SW,T2T5A5,Calgary,AB,(403) 777-7730,,alternative@cbe.ab.ca,Senior High,N,N,N,N,Y,{A9D518DA-4E51-4FBA-AFE4-24E497E329B6},POINT (-114.10996 51.0096595),8,1,200,2,267
The Calgary School Division,Georges P. Vanier School,509  32 Ave NE,T2E2H3,Calgary,AB,(403) 777-7460,,georgespvanier@cbe.ab.ca,Elementary/Junior High,N,N,Y,Y,N,{73731A13-67BE-4436-B3D4-460C8FF80F6A},POINT (-114.0520691 51.0806053),10,4,88,7,202
The Calgary Roman Catholic Separate School Division,Corpus Christi School,5607 Thornton Road N.W.,T2K3C1,Calgary,AB,(403) 500-2023,,corpuschristi@cssd.ab.ca,Elementary,N,N,Y,N,N,{1896E608-2836-4346-AD5E-A3D89D05DBF8},POINT (-114.0680318 51.1015969),2,2,192,4,164
The Calgary School Division,William Reid School,1216  36 Ave SW,T2T2E9,Calgary,AB,(403) 777-6940,,williamreid@cbe.ab.ca,Elementary,N,N,Y,N,N,{927EF37A-E373-4D87-9EFC-C8698642103A},POINT (-114.0903428 51.0221745),8,1,70,5,75
The Calgary School Division,Belvedere Parkway School,4631  85 St NW,T3B2R8,Calgary,AB,(403) 777-6010,,belvedereparkway@cbe.ab.ca,Elementary,N,N,Y,N,N,{213540AA-CF18-4F83-BAB8-FCE07447A420},POINT (-114.2115592 51.0927168),13,2,149,9,77
The Calgary School Division,Ethel M. Johnson School,255 Sackville Dr SW,T2W0W7,Calgary,AB,(403) 777-8500,,ethelmjohnson@cbe.ab.ca,Elementary,N,N,Y,N,N,{6366D222-5D43-43EF-9B3E-E065933E63FA},POINT (-114.0890389 50.9554734),8,1,7,5,91
The Calgary Roman Catholic Separate School Division,Bishop O'Byrne High School,Suite 500  333 Shawville Boulevard S.E.,T2Y4H3,Calgary,AB,(403) 500-2103,,bishopobyrne@cssd.ab.ca,Senior High,N,N,N,N,Y,{06666D90-FD65-44D9-B762-BDB5F89BED37},POINT (-114.0645668 50.8980918),5,3,115,6,281
The Calgary Roman Catholic Separate School Division,Our Lady of the Assumption School,7311 - 34 Avenue N.W.,T3B1N5,Calgary,AB,(403) 500-2045,,assumption@cssd.ab.ca,Elementary/Junior High,N,N,Y,Y,N,{FFF99428-62A4-4C9A-AEA7-AACE9540BE0C},POINT (-114.1913503 51.0832996),13,2,149,9,77
Calgary French & International School Society,Calgary French & International School,700 - 77 Street S.W.,T3H5R1,Calgary,AB,(403) 240-1500,,principal@cfis.com,Elementary/Junior High/Senior High,N,N,Y,Y,Y,{E5E1C418-20BE-48E4-B14A-745CADB475E7},POINT (-114.1978322 51.0678949),1,1,128,14,272
The Calgary School Division,Simons Valley School,375 Sandarac Drive NW,T3K4B2,Calgary,AB,(403) 777-6660,,simonsvalley@cbe.ab.ca,Elementary,N,N,Y,N,N,{64389FFA-DCDB-4527-BEA2-D743E6727C6D},POINT (-114.107326 51.1396781),2,2,270,4,121
The Calgary School Division,O. S. Geiger School,100 Castlebrook Dr NE,T3J2J4,Calgary,AB,(403) 777-6950,,osgeiger@cbe.ab.ca,Elementary,N,N,Y,N,N,{7C456297-6378-413C-B519-D083AB4A220C},POINT (-113.9615405 51.1048865),9,4,119,1,262
The Calgary School Division,West Springs School,8999 Wentworth Ave SW,T3H0P7,Calgary,AB,(403) 777-6244,,,Elementary,N,N,Y,N,N,{D6C06E3D-1456-4ACB-81E1-306CCB40009C},POINT (-114.2167498 51.0584378),1,1,114,14,194
The Calgary School Division,Richmond School,2701 - 22 St SW,T2T5G5,Calgary,AB,(403) 777-8380,,richmond@cbe.ab.ca,Elementary,N,N,Y,N,N,{22194353-1219-4F52-89CC-15BE84D7B1AB},POINT (-114.1150386 51.0301327),14,1,181,2,282
The Calgary Roman Catholic Separate School Division,Monsignor Neville Anderson School,327 Sandarac Drive N.W.,T3K4B2,Calgary,AB,(403) 500-2094,,mna.school@cssd.ab.ca,Elementary,N,N,Y,N,N,{3F8D81C8-0643-4481-AD3C-E150B42B28B7},POINT (-114.1040923 51.139143),2,2,270,4,121
The Calgary School Division,Crescent Heights High School,1019 1 St NW,T2M2S2,Calgary,AB,(403) 276-5521,,crescentheights@cbe.ab.ca,Senior High,N,N,N,N,Y,{F1074584-A501-4F98-A7DF-2B322FE1C144},POINT (-114.0660914 51.0614898),7,2,266,7,120
The Calgary Roman Catholic Separate School Division,St. Bonaventure School,1710 Acadia Drive S.E.,T2J3X8,Calgary,AB,(403) 500-2062,,stbonaventure@cssd.ab.ca,Junior High,N,N,N,Y,N,{1973879A-2550-447F-B911-819A3EAD4C00},POINT (-114.0471812 50.9317371),6,3,267,13,123
The Calgary Roman Catholic Separate School Division,St. Bede Elementary School,333 Bermuda Drive N.W.,T3K2J5,Calgary,AB,(403) 500-2082,,stbede@cssd.ab.ca,Elementary,N,N,Y,N,N,{EA49BEBB-4E3B-4494-A612-1AD32CABFAA1},POINT (-114.082846 51.1316737),2,2,273,4,60
The Palliser School Division,Palliser Beyond Borders at Calgary,Suite 120,T1Y5Z6,Calgary,AB,(403) 291-0584,,,Unknown,N,N,N,N,N,{B1897B2D-0C83-48DE-AF7C-9DD41DEE1FAD},POINT (-113.9990423 51.0861144),9,4,71,3,76
The Calgary School Division,Branton School,2103  20 St NW,T2M3W1,Calgary,AB,(403) 777-7440,,branton@cbe.ab.ca,Elementary/Junior High,N,N,Y,Y,N,{C3ACE451-26E5-426D-B297-221CC1B4C4D1},POINT (-114.1090305 51.0712469),7,2,153,7,183
The Calgary School Division,Annie Gale School,577 Whiteridge Way NE,T1Y4S8,Calgary,AB,(403) 777-7680,,anniegale@cbe.ab.ca,Elementary/Junior High,N,N,Y,Y,N,{122807C3-A30F-4E4D-89C6-EE5AD5D1D3C0},POINT (-113.9689428 51.0890726),9,4,145,3,251
The Calgary School Division,Cranston School,205 Cranston Drive SE,T3M1E8,Calgary,AB,(403) 777-6267,,cranston@cbe.ab.ca,Elementary,N,N,Y,N,N,{1243E710-F739-4DBC-A675-784B49D18FB8},POINT (-113.9872418 50.8867871),4,3,294,8,82
The Southern Francophone Education Region,École Terre des Jeunes,3720 - 42 Street NW,T3A0C6,Calgary,AB,(403) 247-2458,,,Elementary,N,N,Y,N,N,{F4444298-9621-4961-B9BC-EC07A680E49A},POINT (-114.1499727 51.0853094),13,2,269,9,127
Rundle College Society,Rundle College Academy,4330 - 16 Street S.W.,T2T4H9,Calgary,AB,(403) 250-2965,,contactus@rundle.ab.ca,Elementary/Junior High/Senior High,N,N,Y,Y,Y,{5045D3E2-01F8-40A9-B6A9-A111CB4FC566},POINT (-114.0997725 51.0152966),8,1,200,2,267
The Calgary Roman Catholic Separate School Division,St. Josephine Bakhita School,3 Evansglen Cl NW,T3P0P2,Calgary,AB,(403) 500-2136,,stjosephinebakhita@cssd.ab.ca,Elementary,N,N,Y,N,N,{009CEC52-FD19-408C-A6F0-1DADE2A5A83D},POINT (-114.1014977 51.1767754),3,2,237,10,92
The Calgary School Division,Children's Village School,1210 Russet Rd NE,T2E5L5,Calgary,AB,(403) 777-6114,,ChildrensVillage@cbe.ab.ca,Elementary,N,N,Y,N,N,{E78700CC-EDF6-4F1A-948D-F79631CCAA78},POINT (-114.0419644 51.0638688),10,4,171,11,78
The Calgary School Division,Dr. Oakley School,3904  20 St SW,T2T4Z9,Calgary,AB,(403) 777-8300,,droakley@cbe.ab.ca,Elementary/Junior High/Senior High,N,N,Y,Y,Y,{3B152DEF-48D7-4111-A304-2AD51EE4226F},POINT (-114.1084354 51.0192722),8,1,200,2,267
The Calgary School Division,W.H.Cushing Workplace School,130 - 7 Avenue S.W.,T2P1M6,Calgary,AB,(403) 777-8900,,whcushing@cbe.ab.ca,Unknown,N,N,N,N,N,{2DCDA590-C8DB-4F7C-A073-D17EEB29D16C},POINT (-114.0649132 51.046824),7,1,262,7,160
The Calgary Roman Catholic Separate School Division,St. Benedict School,10340 - 19 Street S.W.,T2V1R2,Calgary,AB,(403) 500-2053,,stbenedict@cssd.ab.ca,Elementary,N,N,Y,N,N,{89807324-E8B7-4D71-98A1-B678F8DA5018},POINT (-114.1054471 50.9619935),8,1,127,5,271
The Calgary School Division,F. E. Osborne School,5315 Varsity Dr NW,T3A1A7,Calgary,AB,(403) 777-7540,,feosborne@cbe.ab.ca,Elementary/Junior High,N,N,Y,Y,N,{2ED9AB53-A04A-4D64-9C91-E63D7B2B8446},POINT (-114.162965 51.0928118),13,2,269,9,127
The Calgary Roman Catholic Separate School Division,Guardian Angel School,20 Aspen Hills Dr. SW,T3H0G5,Calgary,AB,(403) 500-2111,,guardianangel@cssd.ab.ca,Elementary,N,N,Y,N,N,{4E11F4FA-ADF6-4469-96E8-85FB58C299B4},POINT (-114.2164654 51.0406287),1,1,48,14,284
The Calgary School Division,Cappy Smart School,5808 Madigan Dr NE,T2A4P5,Calgary,AB,(403) 777-8110,,cappysmart@cbe.ab.ca,Elementary,N,N,Y,N,N,{37D86D0B-387D-4D54-AE41-81B7322B4CBA},POINT (-113.9450677 51.0636931),12,4,33,3,246
The Calgary School Division,Varsity Acres School,4255 40 St NW,T3A0H7,Calgary,AB,(403) 777-6090,,varsityacres@cbe.ab.ca,Elementary,N,N,Y,N,N,{6E9C4F70-3AF1-45CF-9B53-6F88C772E418},POINT (-114.1482182 51.0910144),13,2,269,9,127
The Calgary School Division,Douglas Harkness School,6203  24 Ave NE,T1Y2C5,Calgary,AB,(403) 777-6720,,douglasharkness@cbe.ab.ca,Elementary,N,N,Y,N,N,{75DE4DAB-D835-4065-83E5-54B682AF1350},POINT (-113.9460446 51.0738435),9,4,36,3,294
The Calgary School Division,University School,3035 Utah Dr NW,T2N3Z9,Calgary,AB,(403) 777-6240,,university@cbe.ab.ca,Elementary,N,N,Y,N,N,{D83CFB3E-3F96-43C3-892B-8DBCD9FD1E04},POINT (-114.1332756 51.0698082),13,2,274,7,61
The Calgary School Division,Earl Grey School,845 Hillcrest Ave SW,T2T0Z1,Calgary,AB,(403) 777-8570,,earlgrey@cbe.ab.ca,Elementary,N,N,Y,N,N,{91B86C1C-14AE-4A5B-8328-B23BDE8FC902},POINT (-114.0826538 51.0308745),14,1,271,2,185
The Calgary School Division,Midnapore School,55 Midpark Rise SE,T2X1L7,Calgary,AB,(403) 777-8680,,midnapore@cbe.ab.ca,Elementary,N,N,Y,N,N,{2FF231A1-CDA6-4032-9D0C-F897AB642E6A},POINT (-114.0551747 50.9150402),6,3,263,13,161
,UNIVERSITY OF LETHBRIDGE,,T2G4V1,Calgary,AB,(403) 261-2944,,calgary.campus@uleth.ca,,Y,Y,,,,{CCEBF66C-8867-4754-9A4B-701DEED283EF},POINT (-114.0560011 51.0467662),7,3,262,7,160
The Calgary School Division,Discovering Choices II,#101 495 36 ST NE,T2A6K3,Calgary,AB,(403) 777-8384,,discoveringchoices@cbe.ab.ca,Senior High,N,N,N,N,Y,{DED55215-F295-46CC-A883-850012363E9D},POINT (-113.9849703 51.056524),12,4,84,3,213
The Calgary School Division,Buffalo Rubbing Stone School,1308 Panatella Blvd NW,T3K0X2,Calgary,AB,(403) 817-3536,,buffalorubbingstone@cbe.ab.ca,Elementary,N,N,Y,N,N,{015B4D29-CFC8-4C5D-B3F5-6AAF94C7FF55},POINT (-114.0873685 51.1683524),11,2,235,12,95
The Calgary School Division,Andrew Sibbald School,1711 Lake Bonavista Dr SE,T2J2X9,Calgary,AB,(403) 777-6830,,andrewsibbald@cbe.ab.ca,Elementary,N,N,Y,N,N,{7CC184B7-B05A-4D9F-B4D4-175252821A59},POINT (-114.0408775 50.9351786),6,3,267,13,123
The Calgary Roman Catholic Separate School Division,St. Jean Brebeuf School,5030 Northland Drive N.W.,T2L2J6,Calgary,AB,(403) 500-2046,,stjeanbrebeuf@cssd.ab.ca,Junior High,N,N,N,Y,N,{D021759F-83C3-4E48-8B0C-E448275D1398},POINT (-114.1402289 51.0978934),7,2,50,4,280
The Calgary School Division,Dr. Gordon Higgins School,155 Rundlehill Dr NE,T1Y2W9,Calgary,AB,(403) 777-7060,,drgordonhiggins@cbe.ab.ca,Junior High,N,N,N,Y,N,{0E801DAC-300A-4061-9E18-70AB76771CA8},POINT (-113.970664 51.0752697),9,4,34,3,291
The Calgary Roman Catholic Separate School Division,Blessed Marie-Rose,999 Sherwood Blvd. NW,T3R1M9,Calgary,AB,(403) 500-2131,,marierose@cssd.ab.ca,Elementary/Junior High,N,N,Y,Y,N,{D2F152C8-1602-46F1-9920-DDA54A121666},POINT (-114.1483237 51.1598895),3,2,292,10,86
Webber Academy Foundation,Webber Academy,1515 - 93 Street SW,T3H4A8,Calgary,AB,(403) 277-4700,,nwebber@webberacademy.ca,Elementary/Junior High/Senior High,N,N,Y,Y,Y,{890CEABE-A09D-423D-B052-FB2FF8CDE915},POINT (-114.2250221 51.0441215),1,1,48,14,284
The Calgary School Division,Auburn Bay School,7 Auburn Bay Ave SE,T3M0K6,Calgary,AB,(403) 817-3540,,auburnbay@cbe.ab.ca,Elementary,N,N,Y,N,N,{19468241-8D97-46FF-8A04-0E85A31A1038},POINT (-113.962328 50.896755),4,3,95,8,217
The Calgary Roman Catholic Separate School Division,Madeleine D' Houet Bilingual School,108 - 22 Street N.W.,T2N2M8,Calgary,AB,(403) 500-2008,,madeleinedhouet@cssd.ab.ca,Junior High,N,N,N,Y,N,{AB15A3B6-8DEF-4169-AC98-8995765DF082},POINT (-114.1122383 51.0531936),7,2,280,7,35
The Calgary School Division,John G. Diefenbaker High School,6620  4 St NW,T2K1C2,Calgary,AB,(403) 274-2240,,johngdiefenbaker@cbe.ab.ca,Senior High,N,N,N,N,Y,{65C81BE1-48C2-478B-998E-8AD5AF934678},POINT (-114.0701312 51.1127974),2,2,261,4,158
The Calgary Roman Catholic Separate School Division,St. Sebastian Elementary School,65 Chaparal Drive SE,T2X0E6,Calgary,AB,(403) 500-2116,,stsebastian@cssd.ab.ca,Elementary,N,N,Y,N,N,{B2DA0092-DC32-44AB-ADD9-EF7CB8AE4728},POINT (-114.0291292 50.8848415),6,3,130,13,218
Calgary Girls' School Society,Calgary Girls Charter School - Bel Aire Campus,6304 Larkspur Way SW,T2V2C4,Calgary,AB,(403) 220-0745,,office@calgarygirlsschool.com,Elementary,N,N,Y,N,N,{AF006B87-E448-4E2C-B18A-FBC765BF0300},POINT (-114.0850989 50.9984089),8,1,285,5,26
The Calgary School Division,Connaught School,1121  12 Ave SW,T2R0J8,Calgary,AB,(403) 777-8560,,connaught@cbe.ab.ca,Elementary,N,N,Y,N,N,{91A5CE10-DD9E-430B-860F-8CF5744A9EDA},POINT (-114.0877162 51.0415327),14,1,260,2,130
The Calgary Roman Catholic Separate School Division,St. John XXIII School,1420 Falconridge Drive N.E.,T3J2C3,Calgary,AB,(403) 500-2080,,stjohn23@cssd.ab.ca,Elementary/Junior High,N,N,Y,Y,N,{80BE410E-4CB9-4708-9B62-93792DD683F2},POINT (-113.9389781 51.101405),9,4,56,1,278
The Calgary Roman Catholic Separate School Division,Our Lady of Lourdes,1916 2nd Street SW,T2S1S3,Calgary,AB,(403) 500-2002,,ourladyoflourdes@cssd.ab.ca,Elementary/Junior High,N,N,Y,Y,N,{6270FB48-1EAA-44E3-ACE3-C19F3FAB371D},POINT (-114.0681603 51.0356731),14,1,297,5,90
Asasa Learning,Little Angels,599 Northmount Dr NW,T2K3J6,Calgary,AB,(403) 285-9277,,,Unknown,N,N,N,N,N,{61D7F15A-E5FA-41B3-A320-0BDC2C427CE2},POINT (-114.0880221 51.0871733),7,2,276,4,66
The Calgary School Division,Ian Bazalgette School,3909  26 Ave SE,T2B0C6,Calgary,AB,(403) 777-7360,,ianbazalgette@cbe.ab.ca,Elementary/Junior High,N,N,Y,Y,N,{421E5135-1EB5-4DCC-A173-DB63FD094AB4},POINT (-113.977669 51.02983),10,3,196,11,1
The Calgary Roman Catholic Separate School Division,St. Jerome Elementary School,11616 Panorama Hills Blvd NW,T3K5S3,Calgary,AB,(403) 500-2115,,stjerome@cssd.ab.ca,Elementary,N,N,Y,N,N,{ABFCB207-680E-4DDF-B93B-483AAA644600},POINT (-114.0792827 51.1577112),11,2,235,12,95
Renfrew Educational Services Society,Renfrew Educational Services - Park Place Centre,2050 - 21 Street N.E.,T2E6S5,Calgary,AB,(403) 291-5038,,renfrew@renfreweducation.org,Unknown,N,N,N,N,N,{8FA71EC8-383C-4ECA-8D01-B7FD64A595DC},POINT (-114.0082917 51.069617),9,4,106,3,228
The Calgary School Division,Wood's Homes School,805 37 ST NW,T3B2B2,Calgary,AB,(403) 270-1751,,woodshomes@cbe.ab.ca,Elementary/Junior High/Senior High,N,N,Y,Y,Y,{528438A8-C710-4813-87AA-DB9B6FA4320D},POINT (-114.2242283 51.0960981),13,2,149,9,77
The Palliser School Division,Menno Simons Christian School,7000 Elkton Drive S.W.,T3H4Y7,Calgary,AB,(403) 531-0745,,office@mennosimons.ab.ca,Elementary/Junior High,N,N,Y,Y,N,{6159CC64-6CCA-4697-9F35-860219FCF064},POINT (-114.188501 51.0242003),1,1,289,14,22
The Calgary Chinese Public School Society,Calgary Chinese Private School,126 2nd Avenue S.W,T2P0B9,Calgary,AB,(403) 264-2233,,ccps@shaw.ca,Senior High,N,N,N,N,Y,{1A20E81E-E6EF-4D81-8A91-791C13A7B755},POINT (-114.0642879 51.0516146),7,1,21,7,236
The Calgary School Division,Marshall Springs School,1100 Everridge Dr SW,T2Y4X5,Calgary,AB,(403) 817-3528,,marshallsprings@cbe.ab.ca,Elementary/Junior High,N,N,Y,Y,N,{6A2F4B66-4423-45DE-BB27-C549DECED924},POINT (-114.1123004 50.9114448),5,1,39,6,257
The Calgary School Division,Colonel Macleod School,1610  6 St NE,T2E3Y9,Calgary,AB,(403) 777-7500,,colonelmacleod@cbe.ab.ca,Elementary/Junior High,N,N,Y,Y,N,{538DC87F-77A1-4B7F-8CAE-0431798CF3FD},POINT (-114.0476454 51.0661828),10,4,171,11,78
Alberta Classical Academy Ltd.,Calgary Classical Academy,231 6 St NE,T2E3Y1,Calgary,AB,(587) 885-3688,,info@calgaryclassicalacademy.ca,Elementary,N,N,Y,N,N,{028407C8-3BA2-4D97-B90B-0503277FA04B},POINT (-114.0488198 51.0544219),10,4,137,11,240
Lady Fatima Academy,Lady Fatima Academy,Suite 310 1001 1 St SE,T2G5G3,Calgary,AB,(587) 437-0083,,info@ladyfatimaacademy.ca,Elementary,N,N,Y,N,N,{2981B94B-102A-467B-88F3-D7420E9EB68D},POINT (-114.0612408 51.043006),14,3,260,5,130
The Calgary School Division,Woodlands School,88 Woodgreen Dr SW,T2W4W9,Calgary,AB,(403) 777-8640,,woodlands@cbe.ab.ca,Elementary,N,N,Y,N,N,{9A96C567-9A4A-4BD6-B572-F7B33F625AC0},POINT (-114.1069696 50.9389352),5,1,216,6,142
The Calgary School Division,Ranchlands School,610 Ranchlands Blvd NW,T3G2C5,Calgary,AB,(403) 777-6350,,ranchlands@cbe.ab.ca,Elementary,N,N,Y,N,N,{0D93DB33-333B-42D2-B345-0F504D581B97},POINT (-114.1792097 51.1187048),3,2,245,10,174
The Calgary Roman Catholic Separate School Division,St. Margaret School,3320 Carol Drive N.W.,T2L0K7,Calgary,AB,(403) 500-2025,,saint.margaret@cssd.ab.ca,Elementary/Junior High,N,N,Y,Y,N,{837E2DAD-A687-4A5D-A940-88D9DA6D0B45},POINT (-114.0976374 51.0821353),7,2,214,4,108
The Calgary Roman Catholic Separate School Division,St. Luke Bilingual Elementary School,"1232 Northmount Dr., N.W.",T2L0E1,Calgary,AB,(403) 500-2039,,stluke@cssd.ab.ca,Elementary,N,N,Y,N,N,{7F27E18E-6404-4CB5-9986-B57DD9403F04},POINT (-114.1226868 51.0908267),7,2,50,4,280
The Palliser School Division,Calgary Christian School,2839 - 49 Street S.W.,T3E3X9,Calgary,AB,(403) 242-2896,,ccesoffice@pallisersd.ab.ca,Elementary,N,N,Y,N,N,{B2134F68-0680-48F7-ABBE-150075787561},POINT (-114.1589506 51.0274677),1,1,298,14,33
The Calgary School Division,Eric Harvie School,357 Tuscany Dr NW,T3L3C9,Calgary,AB,(403) 817-3532,,ericharvie@cbe.ab.ca,Elementary,N,N,Y,N,N,{08E862AC-E859-4413-B60D-618CB1D106A5},POINT (-114.2511111 51.1280419),13,2,158,9,107
The Calgary School Division,Belfast School,1229  17A St NE,T2E4V4,Calgary,AB,(403) 777-6250,,belfast@cbe.ab.ca,Elementary,N,N,Y,N,N,{3D24EA9B-59DC-4319-9A99-45EF45EC3268},POINT (-114.0183083 51.063375),12,4,140,3,249
The Calgary School Division,Terrace Road School,2103  46 St NW,T3B1B3,Calgary,AB,(403) 777-6080,,terraceroad@cbe.ab.ca,Elementary,N,N,Y,N,N,{433CB344-D200-437A-81B3-1FAF357F8F98},POINT (-114.1579317 51.0745019),13,2,24,7,239
The Calgary School Division,Acadia School,9603  5 St SE,T2J1K4,Calgary,AB,(403) 777-8440,,,Elementary,N,N,Y,N,N,{5F3E56D0-351C-4FC5-8E9F-3579F73D12F9},POINT (-114.0539269 50.9676106),10,3,174,5,81
The Calgary School Division,CLS Lord Beaverbrook Writing Centre,9019 Fairmount Dr.  S.E.,T2H0Z4,Calgary,AB,(403) 259-5585,,chinooklearning@cbe.ab.ca,Unknown,N,N,N,N,N,{D3C0E233-0B0D-45E8-8180-2C7675C62216},POINT (-114.0616396 50.9730998),10,3,174,5,81
The Calgary School Division,Robert Warren School,12424 Elbow Dr SW,T2W1H2,Calgary,AB,(403) 777-7690,,robertwarren@cbe.ab.ca,Elementary/Junior High,N,N,Y,Y,N,{77EE6C5F-508F-4CD1-A11B-59F261DEBD10},POINT (-114.0848171 50.9425217),5,1,283,6,24
The Calgary School Division,Dr. Martha Cohen School,116 Brightondale Pk SE,T2Z0V1,Calgary,AB,(403) 817-3548,,drmarthacohen@cbe.ab.ca,Elementary/Junior High,N,N,Y,Y,N,{47919C6C-812E-48E5-80E2-E042D59F08C0},POINT (-113.9447324 50.9170989),4,3,139,8,247
Foundations for the Future Charter Academy Charter School Society,FFCA South High School Campus,315 86th Avenue SE,T2H1Z2,Calgary,AB,(587) 794-4250,,wanda.amundson@ffca-calgary.com,Junior High/Senior High,N,N,N,Y,Y,{1DBD6BB2-7E7D-40BC-8657-0EC69876976D},POINT (-114.0650625 50.9753211),10,3,174,5,81
The Calgary Roman Catholic Separate School Division,St. Gianna School,800 Auburn Bay Blvd SE,T3M0H7,Calgary,AB,(403) 500-2135,,stgianna@cssd.ab.ca,Elementary,N,N,Y,N,N,{EB0C9140-8240-4709-8080-35109D768914},POINT (-113.968031 50.8955137),4,3,95,8,217
Foundations for the Future Charter Academy Charter School Society,South Middle School Campus,8710 Ancourt Rd. SE,T2H1V2,Calgary,AB,(403) 259-3175,,,Elementary/Junior High,N,N,Y,Y,N,{A9872A41-2B48-401D-8EFE-DF422156DEB8},POINT (-114.053305 50.9752902),10,3,174,5,81
The Calgary School Division,Pineridge School,1927  61 St NE,T1Y4W6,Calgary,AB,(403) 777-6750,,pineridge@cbe.ab.ca,Elementary,N,N,Y,N,N,{79770FF8-A761-494A-9F4B-84096665362D},POINT (-113.9452293 51.0703248),9,4,36,3,294
The Calgary School Division,Douglasdale School,400 Douglas Park Blvd SE,T2Z4A3,Calgary,AB,(403) 777-6177,,douglasdale@cbe.ab.ca,Elementary,N,N,Y,N,N,{85065A6C-4096-4B9F-9450-4497548BD6A2},POINT (-113.9826488 50.935263),4,3,268,13,124
North Point School for Boys,North Point School - DSEPS,2445 23 Ave SW,T2T0W3,Calgary,AB,(403) 744-5214,,,Elementary/Junior High/Senior High,N,N,Y,Y,Y,{ACC2CD8F-04AB-4E20-A1F7-685E833E7FF0},POINT (-114.1174839 51.0325564),14,1,181,2,282
The Calgary School Division,James Short Memorial School,6333  5 Ave SE,T2A3V7,Calgary,AB,(403) 777-8170,,jamesshortmemorial@cbe.ab.ca,Elementary,N,N,Y,N,N,{F98C57EB-47FD-489B-B6BB-F7F9E76A9863},POINT (-113.9427983 51.0478605),12,3,30,11,244
Banbury Crossroads School,Banbury Crossroads School,B1 #201  2451 Dieppe Avenue S.W.,T3E7K1,Calgary,AB,(403) 270-7787,,general@banburycrossroads.com,Elementary/Junior High/Senior High,N,N,Y,Y,Y,{2E1DB0AB-F66D-410E-900E-974D6574AA3A},POINT (-114.1190388 51.0192866),8,1,199,2,50
The Calgary Roman Catholic Separate School Division,Monsignor J. J. O'Brien,99 Bridlewood Road SW,T2Y4J5,Calgary,AB,(403) 500-2104,,msgrobrien@cssd.ab.ca,Elementary/Junior High,N,N,Y,Y,N,{080F7B9B-2023-4975-8090-355213EFA687},POINT (-114.1038587 50.9015663),5,1,138,6,283
The Calgary School Division,Briar Hill School,1233  21 St NW,T2N2L8,Calgary,AB,(403) 777-6140,,briarhill@cbe.ab.ca,Elementary,N,N,Y,N,N,{41333B6A-516F-4FF1-952A-A134A080B3FF},POINT (-114.1114185 51.0631133),7,2,152,7,182
STEM Innovation Academy Society,STEM Innovation Academy High School,3636 Research Road NW,T2L2K7,Calgary,AB,(587) 943-2499,,info@stemia.ca,Senior High,N,N,N,N,Y,{B5940CB0-5CB1-4D20-9110-75DB7BDABAA9},POINT (-114.1309301 51.084563),13,2,269,9,127
